{"type": "FeatureCollection", "metadata": {"window_start": "2026-04-19", "window_end": "2026-05-19", "n_total_in_window": 80, "n_unmatched": 621, "source": "Reddit search across multiple queries"}, "features": [{"type": "Feature", "geometry": {"type": "Polygon", "coordinates": [[[-73.07925088238643, 40.74838], [-73.09687950599927, 40.883977147277996], [-73.14908791871862, 41.01436337222985], [-73.23386978052247, 41.13452800535212], [-73.34796697200792, 41.23985318718299], [-73.48699480209264, 41.32629133005176], [-73.64561050923416, 41.390520664603045], [-73.81771858075975, 41.43007289353027], [-73.996705, 41.443428046856916], [-74.17569141924027, 41.43007289353027], [-74.34779949076585, 41.390520664603045], [-74.50641519790737, 41.32629133005176], [-74.64544302799209, 41.23985318718299], [-74.75954021947754, 41.13452800535212], [-74.84432208128139, 41.01436337222985], [-74.89653049400074, 40.883977147277996], [-74.91415911761358, 40.74838], [-74.89653049400074, 40.612782852722], [-74.84432208128139, 40.48239662777014], [-74.75954021947754, 40.36223199464788], [-74.64544302799209, 40.25690681281701], [-74.50641519790737, 40.170468669948235], [-74.34779949076585, 40.10623933539695], [-74.17569141924027, 40.06668710646972], [-73.996705, 40.05333195314308], [-73.81771858075975, 40.06668710646972], [-73.64561050923416, 40.10623933539695], [-73.48699480209264, 40.170468669948235], [-73.34796697200792, 40.25690681281701], [-73.23386978052247, 40.36223199464788], [-73.14908791871862, 40.48239662777014], [-73.09687950599927, 40.612782852722], [-73.07925088238643, 40.74838]]]}, "properties": {"tier": "1", "tier_color": "#7a0019", "n_arrests": 23, "county": "New York", "state": "New York", "label": "1: 23 Reddit posts", "examples": [{"title": "Quiet on the Set", "subreddit": "AvengersTowerNY", "permalink": "https://reddit.com/r/AvengersTowerNY/comments/1thqro2/quiet_on_the_set/", "score": 3, "date": "2026-05-19"}, {"title": "The Thing behind me wants me to turn around (Part 2 of 4)", "subreddit": "Dreading", "permalink": "https://reddit.com/r/Dreading/comments/1th90dd/the_thing_behind_me_wants_me_to_turn_around_part/", "score": 2, "date": "2026-05-19"}, {"title": "Version 2.0 of my Alternative TFR Scenario", "subreddit": "TheFireRisesMod", "permalink": "https://reddit.com/r/TheFireRisesMod/comments/1th2ep6/version_20_of_my_alternative_tfr_scenario/", "score": 14, "date": "2026-05-18"}], "kind": "ring"}}, {"type": "Feature", "geometry": {"type": "Point", "coordinates": [-73.996705, 40.74838]}, "properties": {"tier": "1", "tier_color": "#7a0019", "n_arrests": 23, "county": "New York", "state": "New York", "label": "1: 23 Reddit posts", "examples": [{"title": "Quiet on the Set", "subreddit": "AvengersTowerNY", "permalink": "https://reddit.com/r/AvengersTowerNY/comments/1thqro2/quiet_on_the_set/", "score": 3, "date": "2026-05-19"}, {"title": "The Thing behind me wants me to turn around (Part 2 of 4)", "subreddit": "Dreading", "permalink": "https://reddit.com/r/Dreading/comments/1th90dd/the_thing_behind_me_wants_me_to_turn_around_part/", "score": 2, "date": "2026-05-19"}, {"title": "Version 2.0 of my Alternative TFR Scenario", "subreddit": "TheFireRisesMod", "permalink": "https://reddit.com/r/TheFireRisesMod/comments/1th2ep6/version_20_of_my_alternative_tfr_scenario/", "score": 14, "date": "2026-05-18"}], "kind": "marker"}}, {"type": "Feature", "geometry": {"type": "Polygon", "coordinates": [[[-76.64517894069547, 38.912217], [-76.65233665546143, 38.96876491942496], [-76.67353473279492, 39.02313973401886], [-76.70795854247204, 39.073251850150605], [-76.75428519679201, 39.11717548730045], [-76.81073438840957, 39.15322268472537], [-76.87513680654796, 39.18000816884385], [-76.94501750239539, 39.19650258852268], [-77.017691, 39.202072072463764], [-77.09036449760461, 39.19650258852268], [-77.16024519345204, 39.18000816884385], [-77.22464761159043, 39.15322268472537], [-77.28109680320799, 39.11717548730045], [-77.32742345752796, 39.073251850150605], [-77.36184726720508, 39.02313973401886], [-77.38304534453857, 38.96876491942496], [-77.39020305930453, 38.912217], [-77.38304534453857, 38.85566908057503], [-77.36184726720508, 38.801294265981134], [-77.32742345752796, 38.75118214984939], [-77.28109680320799, 38.707258512699546], [-77.22464761159043, 38.671211315274626], [-77.16024519345204, 38.64442583115615], [-77.09036449760461, 38.62793141147732], [-77.017691, 38.62236192753623], [-76.94501750239539, 38.62793141147732], [-76.87513680654796, 38.64442583115615], [-76.81073438840957, 38.671211315274626], [-76.75428519679201, 38.707258512699546], [-76.70795854247204, 38.75118214984939], [-76.67353473279492, 38.801294265981134], [-76.65233665546143, 38.85566908057503], [-76.64517894069547, 38.912217]]]}, "properties": {"tier": "3", "tier_color": "#f46036", "n_arrests": 4, "county": "Washington", "state": "District of Columbia", "label": "3: 4 Reddit posts", "examples": [{"title": "Protest in Crystal City Tunnel?", "subreddit": "washingtondc", "permalink": "https://reddit.com/r/washingtondc/comments/1thpe1w/protest_in_crystal_city_tunnel/", "score": 1, "date": "2026-05-19"}, {"title": "Predictions for the 2060s", "subreddit": "decadeologycirclejerk", "permalink": "https://reddit.com/r/decadeologycirclejerk/comments/1thp61s/predictions_for_the_2060s/", "score": 1, "date": "2026-05-19"}, {"title": "Favorite Brewery by Territories: Northwest Territories, Nunavut, Yukon", "subreddit": "CraftBeer", "permalink": "https://reddit.com/r/CraftBeer/comments/1tfnz6x/favorite_brewery_by_territories_northwest/", "score": 3, "date": "2026-05-17"}], "kind": "ring"}}, {"type": "Feature", "geometry": {"type": "Point", "coordinates": [-77.017691, 38.912217]}, "properties": {"tier": "3", "tier_color": "#f46036", "n_arrests": 4, "county": "Washington", "state": "District of Columbia", "label": "3: 4 Reddit posts", "examples": [{"title": "Protest in Crystal City Tunnel?", "subreddit": "washingtondc", "permalink": "https://reddit.com/r/washingtondc/comments/1thpe1w/protest_in_crystal_city_tunnel/", "score": 1, "date": "2026-05-19"}, {"title": "Predictions for the 2060s", "subreddit": "decadeologycirclejerk", "permalink": "https://reddit.com/r/decadeologycirclejerk/comments/1thp61s/predictions_for_the_2060s/", "score": 1, "date": "2026-05-19"}, {"title": "Favorite Brewery by Territories: Northwest Territories, Nunavut, Yukon", "subreddit": "CraftBeer", "permalink": "https://reddit.com/r/CraftBeer/comments/1tfnz6x/favorite_brewery_by_territories_northwest/", "score": 3, "date": "2026-05-17"}], "kind": "marker"}}, {"type": "Feature", "geometry": {"type": "Polygon", "coordinates": [[[-83.9682451303061, 33.749788], [-83.97494347512735, 33.80633591942497], [-83.99478109595604, 33.860710734018866], [-84.02699564414884, 33.91082285015061], [-84.0703491326848, 33.954746487300454], [-84.1231755113124, 33.990793684725375], [-84.18344469192635, 34.01757916884385], [-84.24884056371504, 34.03407358852268], [-84.31685, 34.03964307246377], [-84.38485943628497, 34.03407358852268], [-84.45025530807365, 34.01757916884385], [-84.51052448868761, 33.990793684725375], [-84.56335086731521, 33.954746487300454], [-84.60670435585116, 33.91082285015061], [-84.63891890404396, 33.860710734018866], [-84.65875652487266, 33.80633591942497], [-84.6654548696939, 33.749788], [-84.65875652487266, 33.69324008057504], [-84.63891890404396, 33.63886526598114], [-84.60670435585116, 33.588753149849396], [-84.56335086731521, 33.54482951269955], [-84.51052448868761, 33.50878231527463], [-84.45025530807365, 33.48199683115615], [-84.38485943628497, 33.465502411477324], [-84.31685, 33.45993292753624], [-84.24884056371504, 33.465502411477324], [-84.18344469192635, 33.48199683115615], [-84.1231755113124, 33.50878231527463], [-84.0703491326848, 33.54482951269955], [-84.02699564414884, 33.588753149849396], [-83.99478109595604, 33.63886526598114], [-83.97494347512735, 33.69324008057504], [-83.9682451303061, 33.749788]]]}, "properties": {"tier": "3", "tier_color": "#f46036", "n_arrests": 4, "county": "Atlanta", "state": "Georgia", "label": "3: 4 Reddit posts", "examples": [{"title": "Gaia Gone: Earthsea Evening News", "subreddit": "LibraryofBabel", "permalink": "https://reddit.com/r/LibraryofBabel/comments/1tho40h/gaia_gone_earthsea_evening_news/", "score": 1, "date": "2026-05-19"}, {"title": "The Most Interesting Part of Trump\u2019s Prayer Rally", "subreddit": "atlanticdiscussions", "permalink": "https://reddit.com/r/atlanticdiscussions/comments/1thnu6o/the_most_interesting_part_of_trumps_prayer_rally/", "score": 3, "date": "2026-05-19"}, {"title": "Waffle House workers: \u2018We work, we sweat, put $25 on our check!\u2019", "subreddit": "Atlanta", "permalink": "https://reddit.com/r/Atlanta/comments/1th180b/waffle_house_workers_we_work_we_sweat_put_25_on/", "score": 527, "date": "2026-05-18"}], "kind": "ring"}}, {"type": "Feature", "geometry": {"type": "Point", "coordinates": [-84.31685, 33.749788]}, "properties": {"tier": "3", "tier_color": "#f46036", "n_arrests": 4, "county": "Atlanta", "state": "Georgia", "label": "3: 4 Reddit posts", "examples": [{"title": "Gaia Gone: Earthsea Evening News", "subreddit": "LibraryofBabel", "permalink": "https://reddit.com/r/LibraryofBabel/comments/1tho40h/gaia_gone_earthsea_evening_news/", "score": 1, "date": "2026-05-19"}, {"title": "The Most Interesting Part of Trump\u2019s Prayer Rally", "subreddit": "atlanticdiscussions", "permalink": "https://reddit.com/r/atlanticdiscussions/comments/1thnu6o/the_most_interesting_part_of_trumps_prayer_rally/", "score": 3, "date": "2026-05-19"}, {"title": "Waffle House workers: \u2018We work, we sweat, put $25 on our check!\u2019", "subreddit": "Atlanta", "permalink": "https://reddit.com/r/Atlanta/comments/1th180b/waffle_house_workers_we_work_we_sweat_put_25_on/", "score": 527, "date": "2026-05-18"}], "kind": "marker"}}, {"type": "Feature", "geometry": {"type": "Polygon", "coordinates": [[[-116.81479843105168, 32.71852], [-116.82141823953518, 32.77506791942496], [-116.8410232694581, 32.82944273401886], [-116.87286011051512, 32.879554850150605], [-116.91570529075874, 32.92347848730045], [-116.96791229394003, 32.95952568472537], [-117.02747483420478, 32.98631116884385], [-117.09210395653366, 33.002805588522676], [-117.159316, 33.008375072463764], [-117.22652804346635, 33.002805588522676], [-117.29115716579523, 32.98631116884385], [-117.35071970605998, 32.95952568472537], [-117.40292670924127, 32.92347848730045], [-117.44577188948489, 32.879554850150605], [-117.4776087305419, 32.82944273401886], [-117.49721376046483, 32.77506791942496], [-117.50383356894832, 32.71852], [-117.49721376046483, 32.66197208057503], [-117.4776087305419, 32.607597265981134], [-117.44577188948489, 32.55748514984939], [-117.40292670924127, 32.513561512699546], [-117.35071970605998, 32.477514315274625], [-117.29115716579523, 32.45072883115615], [-117.22652804346635, 32.43423441147732], [-117.159316, 32.42866492753623], [-117.09210395653366, 32.43423441147732], [-117.02747483420478, 32.45072883115615], [-116.96791229394003, 32.477514315274625], [-116.91570529075874, 32.513561512699546], [-116.87286011051512, 32.55748514984939], [-116.8410232694581, 32.607597265981134], [-116.82141823953518, 32.66197208057503], [-116.81479843105168, 32.71852]]]}, "properties": {"tier": "3", "tier_color": "#f46036", "n_arrests": 4, "county": "San Diego", "state": "California", "label": "3: 4 Reddit posts", "examples": [{"title": "5/19 Morning Brief - San Diego mosque shooting investigated as possible hate crime, Trump pauses planned Iran strike amid renewed nuclear talks", "subreddit": "IntelligenceNews", "permalink": "https://reddit.com/r/IntelligenceNews/comments/1tho2dm/519_morning_brief_san_diego_mosque_shooting/", "score": 3, "date": "2026-05-19"}, {"title": "Never Play with a Ouija Board at the Abandoned Blackwell Zoo (Pt. 1)", "subreddit": "TalesFromTheCreeps", "permalink": "https://reddit.com/r/TalesFromTheCreeps/comments/1tg8jau/never_play_with_a_ouija_board_at_the_abandoned/", "score": 3, "date": "2026-05-18"}, {"title": "Never Play with a Ouija Board at the Abandoned Blackwell Zoo (Part 1)", "subreddit": "nosleep", "permalink": "https://reddit.com/r/nosleep/comments/1tg8i1x/never_play_with_a_ouija_board_at_the_abandoned/", "score": 16, "date": "2026-05-18"}], "kind": "ring"}}, {"type": "Feature", "geometry": {"type": "Point", "coordinates": [-117.159316, 32.71852]}, "properties": {"tier": "3", "tier_color": "#f46036", "n_arrests": 4, "county": "San Diego", "state": "California", "label": "3: 4 Reddit posts", "examples": [{"title": "5/19 Morning Brief - San Diego mosque shooting investigated as possible hate crime, Trump pauses planned Iran strike amid renewed nuclear talks", "subreddit": "IntelligenceNews", "permalink": "https://reddit.com/r/IntelligenceNews/comments/1tho2dm/519_morning_brief_san_diego_mosque_shooting/", "score": 3, "date": "2026-05-19"}, {"title": "Never Play with a Ouija Board at the Abandoned Blackwell Zoo (Pt. 1)", "subreddit": "TalesFromTheCreeps", "permalink": "https://reddit.com/r/TalesFromTheCreeps/comments/1tg8jau/never_play_with_a_ouija_board_at_the_abandoned/", "score": 3, "date": "2026-05-18"}, {"title": "Never Play with a Ouija Board at the Abandoned Blackwell Zoo (Part 1)", "subreddit": "nosleep", "permalink": "https://reddit.com/r/nosleep/comments/1tg8i1x/never_play_with_a_ouija_board_at_the_abandoned/", "score": 16, "date": "2026-05-18"}], "kind": "marker"}}, {"type": "Feature", "geometry": {"type": "Polygon", "coordinates": [[[-74.94815592534381, 39.864998], [-74.95443990867524, 39.913969934753176], [-74.97305036871418, 39.961059905517565], [-75.00327211591822, 40.004458271125046], [-75.04394374549085, 40.04249725672342], [-75.09350226951652, 40.073715045428635], [-75.15004318170963, 40.0969119551279], [-75.21139364652315, 40.111196541590445], [-75.275196, 40.1160198561694], [-75.33899835347684, 40.111196541590445], [-75.40034881829035, 40.0969119551279], [-75.45688973048347, 40.073715045428635], [-75.50644825450914, 40.04249725672342], [-75.54711988408177, 40.004458271125046], [-75.5773416312858, 39.961059905517565], [-75.59595209132475, 39.913969934753176], [-75.60223607465618, 39.864998], [-75.59595209132475, 39.816026065246824], [-75.5773416312858, 39.768936094482434], [-75.54711988408177, 39.725537728874954], [-75.50644825450914, 39.68749874327658], [-75.45688973048347, 39.656280954571365], [-75.40034881829035, 39.6330840448721], [-75.33899835347685, 39.618799458409555], [-75.275196, 39.6139761438306], [-75.21139364652315, 39.618799458409555], [-75.15004318170963, 39.6330840448721], [-75.09350226951652, 39.656280954571365], [-75.04394374549085, 39.68749874327658], [-75.00327211591822, 39.725537728874954], [-74.97305036871418, 39.768936094482434], [-74.95443990867524, 39.816026065246824], [-74.94815592534381, 39.864998]]]}, "properties": {"tier": "3", "tier_color": "#f46036", "n_arrests": 3, "county": "Philadelphia", "state": "Pennsylvania", "label": "3: 3 Reddit posts", "examples": [{"title": "Reconstructed America - Summary of Frank Church's Presidency (1973-1975)", "subreddit": "Presidentialpoll", "permalink": "https://reddit.com/r/Presidentialpoll/comments/1tgsmrv/reconstructed_america_summary_of_frank_churchs/", "score": 10, "date": "2026-05-18"}, {"title": "\u0442\u0442\u0442", "subreddit": "u_North_Craft6428", "permalink": "https://reddit.com/r/u_North_Craft6428/comments/1tgqaxl/\u0442\u0442\u0442/", "score": 1, "date": "2026-05-18"}, {"title": "Second US Civil War (My first post didn't do well)", "subreddit": "worldbuilding", "permalink": "https://reddit.com/r/worldbuilding/comments/1t4olr8/second_us_civil_war_my_first_post_didnt_do_well/", "score": 0, "date": "2026-05-05"}], "kind": "ring"}}, {"type": "Feature", "geometry": {"type": "Point", "coordinates": [-75.275196, 39.864998]}, "properties": {"tier": "3", "tier_color": "#f46036", "n_arrests": 3, "county": "Philadelphia", "state": "Pennsylvania", "label": "3: 3 Reddit posts", "examples": [{"title": "Reconstructed America - Summary of Frank Church's Presidency (1973-1975)", "subreddit": "Presidentialpoll", "permalink": "https://reddit.com/r/Presidentialpoll/comments/1tgsmrv/reconstructed_america_summary_of_frank_churchs/", "score": 10, "date": "2026-05-18"}, {"title": "\u0442\u0442\u0442", "subreddit": "u_North_Craft6428", "permalink": "https://reddit.com/r/u_North_Craft6428/comments/1tgqaxl/\u0442\u0442\u0442/", "score": 1, "date": "2026-05-18"}, {"title": "Second US Civil War (My first post didn't do well)", "subreddit": "worldbuilding", "permalink": "https://reddit.com/r/worldbuilding/comments/1t4olr8/second_us_civil_war_my_first_post_didnt_do_well/", "score": 0, "date": "2026-05-05"}], "kind": "marker"}}, {"type": "Feature", "geometry": {"type": "Polygon", "coordinates": [[[-122.10072060670863, 37.775], [-122.10682280570043, 37.823971934753175], [-122.12489489859075, 37.871061905517564], [-122.15424238498476, 37.914460271125044], [-122.19373745743856, 37.95249925672342], [-122.24186234246689, 37.983717045428634], [-122.29676762772684, 38.0069139551279], [-122.3563433338971, 38.021198541590444], [-122.4183, 38.0260218561694], [-122.4802566661029, 38.021198541590444], [-122.53983237227317, 38.0069139551279], [-122.59473765753312, 37.983717045428634], [-122.64286254256145, 37.95249925672342], [-122.68235761501525, 37.914460271125044], [-122.71170510140925, 37.871061905517564], [-122.72977719429957, 37.823971934753175], [-122.73587939329137, 37.775], [-122.72977719429957, 37.72602806524682], [-122.71170510140925, 37.67893809448243], [-122.68235761501525, 37.63553972887495], [-122.64286254256145, 37.597500743276576], [-122.59473765753312, 37.56628295457136], [-122.53983237227317, 37.5430860448721], [-122.4802566661029, 37.52880145840955], [-122.4183, 37.5239781438306], [-122.3563433338971, 37.52880145840955], [-122.29676762772684, 37.5430860448721], [-122.24186234246689, 37.56628295457136], [-122.19373745743856, 37.597500743276576], [-122.15424238498476, 37.63553972887495], [-122.12489489859075, 37.67893809448243], [-122.10682280570043, 37.72602806524682], [-122.10072060670863, 37.775]]]}, "properties": {"tier": "3", "tier_color": "#f46036", "n_arrests": 3, "county": "San Francisco", "state": "California", "label": "3: 3 Reddit posts", "examples": [{"title": "The American Rebellion Against AI is Gaining Steam (WSJ)", "subreddit": "DeepStateCentrism", "permalink": "https://reddit.com/r/DeepStateCentrism/comments/1thqun8/the_american_rebellion_against_ai_is_gaining/", "score": 1, "date": "2026-05-19"}, {"title": "Tougher conviction for reckless driving \u2014 I want to get involved. Do you?", "subreddit": "sanfrancisco", "permalink": "https://reddit.com/r/sanfrancisco/comments/1tholfa/tougher_conviction_for_reckless_driving_i_want_to/", "score": 86, "date": "2026-05-19"}, {"title": "Feminism is a hate movement against men:", "subreddit": "GlobalMaleAlliance", "permalink": "https://reddit.com/r/GlobalMaleAlliance/comments/1tex4t0/feminism_is_a_hate_movement_against_men/", "score": 4, "date": "2026-05-16"}], "kind": "ring"}}, {"type": "Feature", "geometry": {"type": "Point", "coordinates": [-122.4183, 37.775]}, "properties": {"tier": "3", "tier_color": "#f46036", "n_arrests": 3, "county": "San Francisco", "state": "California", "label": "3: 3 Reddit posts", "examples": [{"title": "The American Rebellion Against AI is Gaining Steam (WSJ)", "subreddit": "DeepStateCentrism", "permalink": "https://reddit.com/r/DeepStateCentrism/comments/1thqun8/the_american_rebellion_against_ai_is_gaining/", "score": 1, "date": "2026-05-19"}, {"title": "Tougher conviction for reckless driving \u2014 I want to get involved. Do you?", "subreddit": "sanfrancisco", "permalink": "https://reddit.com/r/sanfrancisco/comments/1tholfa/tougher_conviction_for_reckless_driving_i_want_to/", "score": 86, "date": "2026-05-19"}, {"title": "Feminism is a hate movement against men:", "subreddit": "GlobalMaleAlliance", "permalink": "https://reddit.com/r/GlobalMaleAlliance/comments/1tex4t0/feminism_is_a_hate_movement_against_men/", "score": 4, "date": "2026-05-16"}], "kind": "marker"}}, {"type": "Feature", "geometry": {"type": "Polygon", "coordinates": [[[-87.28094397577496, 41.885847], [-87.28742277617935, 41.934818934753174], [-87.30661020072637, 41.981908905517564], [-87.33776888745106, 42.025307271125044], [-87.3797014254966, 42.06334625672342], [-87.43079637094198, 42.09456404542863], [-87.48909017368806, 42.1177609551279], [-87.55234263558685, 42.13204554159044], [-87.618123, 42.1368688561694], [-87.68390336441314, 42.13204554159044], [-87.74715582631194, 42.1177609551279], [-87.80544962905802, 42.09456404542863], [-87.85654457450339, 42.06334625672342], [-87.89847711254893, 42.025307271125044], [-87.92963579927363, 41.981908905517564], [-87.94882322382064, 41.934818934753174], [-87.95530202422503, 41.885847], [-87.94882322382064, 41.83687506524682], [-87.92963579927363, 41.78978509448243], [-87.89847711254893, 41.74638672887495], [-87.85654457450339, 41.708347743276576], [-87.80544962905802, 41.67712995457136], [-87.74715582631194, 41.6539330448721], [-87.68390336441314, 41.63964845840955], [-87.618123, 41.6348251438306], [-87.55234263558685, 41.63964845840955], [-87.48909017368806, 41.6539330448721], [-87.43079637094198, 41.67712995457136], [-87.3797014254966, 41.708347743276576], [-87.33776888745106, 41.74638672887495], [-87.30661020072637, 41.78978509448243], [-87.28742277617935, 41.83687506524682], [-87.28094397577496, 41.885847]]]}, "properties": {"tier": "3", "tier_color": "#f46036", "n_arrests": 3, "county": "Chicago", "state": "Illinois", "label": "3: 3 Reddit posts", "examples": [{"title": "2ACW and Internet Access", "subreddit": "TheFireRisesMod", "permalink": "https://reddit.com/r/TheFireRisesMod/comments/1thpag0/2acw_and_internet_access/", "score": 1, "date": "2026-05-19"}, {"title": "New this week - 5/19/26 - Free Bandcamp Download Codes", "subreddit": "bandcamp_discovery", "permalink": "https://reddit.com/r/bandcamp_discovery/comments/1thlv61/new_this_week_51926_free_bandcamp_download_codes/", "score": 6, "date": "2026-05-19"}, {"title": "Negotiations to resume at BP Whiting refinery amid monthslong lockout", "subreddit": "union", "permalink": "https://reddit.com/r/union/comments/1tgjd6g/negotiations_to_resume_at_bp_whiting_refinery/", "score": 35, "date": "2026-05-18"}], "kind": "ring"}}, {"type": "Feature", "geometry": {"type": "Point", "coordinates": [-87.618123, 41.885847]}, "properties": {"tier": "3", "tier_color": "#f46036", "n_arrests": 3, "county": "Chicago", "state": "Illinois", "label": "3: 3 Reddit posts", "examples": [{"title": "2ACW and Internet Access", "subreddit": "TheFireRisesMod", "permalink": "https://reddit.com/r/TheFireRisesMod/comments/1thpag0/2acw_and_internet_access/", "score": 1, "date": "2026-05-19"}, {"title": "New this week - 5/19/26 - Free Bandcamp Download Codes", "subreddit": "bandcamp_discovery", "permalink": "https://reddit.com/r/bandcamp_discovery/comments/1thlv61/new_this_week_51926_free_bandcamp_download_codes/", "score": 6, "date": "2026-05-19"}, {"title": "Negotiations to resume at BP Whiting refinery amid monthslong lockout", "subreddit": "union", "permalink": "https://reddit.com/r/union/comments/1tgjd6g/negotiations_to_resume_at_bp_whiting_refinery/", "score": 35, "date": "2026-05-18"}], "kind": "marker"}}, {"type": "Feature", "geometry": {"type": "Polygon", "coordinates": [[[-86.01458082872294, 32.3743], [-86.02029181175782, 32.423271934753174], [-86.03720529098716, 32.470361905517564], [-86.06467129088938, 32.513760271125044], [-86.10163430849134, 32.55179925672342], [-86.14667387575571, 32.58301704542863], [-86.19805914737098, 32.6062139551279], [-86.25381541616619, 32.62049854159044], [-86.3118, 32.6253218561694], [-86.36978458383382, 32.62049854159044], [-86.42554085262903, 32.6062139551279], [-86.4769261242443, 32.58301704542863], [-86.52196569150867, 32.55179925672342], [-86.55892870911063, 32.513760271125044], [-86.58639470901285, 32.470361905517564], [-86.6033081882422, 32.423271934753174], [-86.60901917127707, 32.3743], [-86.6033081882422, 32.32532806524682], [-86.58639470901285, 32.27823809448243], [-86.55892870911063, 32.23483972887495], [-86.52196569150867, 32.196800743276576], [-86.4769261242443, 32.16558295457136], [-86.42554085262903, 32.1423860448721], [-86.36978458383382, 32.12810145840955], [-86.3118, 32.123278143830596], [-86.25381541616619, 32.12810145840955], [-86.19805914737098, 32.1423860448721], [-86.14667387575571, 32.16558295457136], [-86.10163430849134, 32.196800743276576], [-86.06467129088938, 32.23483972887495], [-86.03720529098716, 32.27823809448243], [-86.02029181175782, 32.32532806524682], [-86.01458082872294, 32.3743]]]}, "properties": {"tier": "3", "tier_color": "#f46036", "n_arrests": 3, "county": "Montgomery", "state": "Alabama", "label": "3: 3 Reddit posts", "examples": [{"title": "AOC on redistricting fight: 'It's time for the North to pull up to the South'", "subreddit": "msnow", "permalink": "https://reddit.com/r/msnow/comments/1thmtl8/aoc_on_redistricting_fight_its_time_for_the_north/", "score": 6, "date": "2026-05-19"}, {"title": "\"They do not know the sleeping giant they just awakened.\" \u2014 AOC on absolute fire at the voting rights rally in Montgomery, Alabama.", "subreddit": "LockedIn_AI", "permalink": "https://reddit.com/r/LockedIn_AI/comments/1tfnlze/they_do_not_know_the_sleeping_giant_they_just/", "score": 211, "date": "2026-05-17"}, {"title": "\"They do not know the sleeping giant they just awakened.\" \u2014 AOC on absolute fire at the voting rights rally in Montgomery, Alabama.", "subreddit": "WhitePeopleTwitter", "permalink": "https://reddit.com/r/WhitePeopleTwitter/comments/1tfckdn/they_do_not_know_the_sleeping_giant_they_just/", "score": 2329, "date": "2026-05-17"}], "kind": "ring"}}, {"type": "Feature", "geometry": {"type": "Point", "coordinates": [-86.3118, 32.3743]}, "properties": {"tier": "3", "tier_color": "#f46036", "n_arrests": 3, "county": "Montgomery", "state": "Alabama", "label": "3: 3 Reddit posts", "examples": [{"title": "AOC on redistricting fight: 'It's time for the North to pull up to the South'", "subreddit": "msnow", "permalink": "https://reddit.com/r/msnow/comments/1thmtl8/aoc_on_redistricting_fight_its_time_for_the_north/", "score": 6, "date": "2026-05-19"}, {"title": "\"They do not know the sleeping giant they just awakened.\" \u2014 AOC on absolute fire at the voting rights rally in Montgomery, Alabama.", "subreddit": "LockedIn_AI", "permalink": "https://reddit.com/r/LockedIn_AI/comments/1tfnlze/they_do_not_know_the_sleeping_giant_they_just/", "score": 211, "date": "2026-05-17"}, {"title": "\"They do not know the sleeping giant they just awakened.\" \u2014 AOC on absolute fire at the voting rights rally in Montgomery, Alabama.", "subreddit": "WhitePeopleTwitter", "permalink": "https://reddit.com/r/WhitePeopleTwitter/comments/1tfckdn/they_do_not_know_the_sleeping_giant_they_just/", "score": 2329, "date": "2026-05-17"}], "kind": "marker"}}, {"type": "Feature", "geometry": {"type": "Polygon", "coordinates": [[[-118.00074965269629, 33.973093], [-118.00549850045908, 34.01307841728738], [-118.01956254819117, 34.05152721741249], [-118.04240132242539, 34.08696183454885], [-118.07313714187606, 34.11802053623188], [-118.11058884623853, 34.14350975397382], [-118.15331718751732, 34.162449951431356], [-118.1996801395194, 34.17411326743799], [-118.247896, 34.17805148730045], [-118.2961118604806, 34.17411326743799], [-118.34247481248268, 34.162449951431356], [-118.38520315376147, 34.14350975397382], [-118.42265485812393, 34.11802053623188], [-118.4533906775746, 34.08696183454885], [-118.47622945180882, 34.05152721741249], [-118.49029349954091, 34.01307841728738], [-118.49504234730371, 33.973093], [-118.49029349954091, 33.933107582712616], [-118.47622945180882, 33.894658782587506], [-118.4533906775746, 33.859224165451145], [-118.42265485812393, 33.828165463768116], [-118.38520315376147, 33.80267624602618], [-118.34247481248268, 33.78373604856864], [-118.2961118604806, 33.77207273256201], [-118.247896, 33.76813451269955], [-118.1996801395194, 33.77207273256201], [-118.15331718751732, 33.78373604856864], [-118.11058884623853, 33.80267624602618], [-118.07313714187606, 33.828165463768116], [-118.04240132242539, 33.859224165451145], [-118.01956254819117, 33.894658782587506], [-118.00549850045908, 33.933107582712616], [-118.00074965269629, 33.973093]]]}, "properties": {"tier": "4", "tier_color": "#f5a623", "n_arrests": 2, "county": "Los Angeles", "state": "California", "label": "4: 2 Reddit posts", "examples": [{"title": "ACS May-19-2026: Tim Hawkins", "subreddit": "AdamCarolla", "permalink": "https://reddit.com/r/AdamCarolla/comments/1th90tf/acs_may192026_tim_hawkins/", "score": 5, "date": "2026-05-19"}, {"title": "Spencer Pratt held a rally at a house in Sherman Oaks today.", "subreddit": "LosAngeles", "permalink": "https://reddit.com/r/LosAngeles/comments/1tf9ljx/spencer_pratt_held_a_rally_at_a_house_in_sherman/", "score": 0, "date": "2026-05-17"}], "kind": "ring"}}, {"type": "Feature", "geometry": {"type": "Point", "coordinates": [-118.247896, 33.973093]}, "properties": {"tier": "4", "tier_color": "#f5a623", "n_arrests": 2, "county": "Los Angeles", "state": "California", "label": "4: 2 Reddit posts", "examples": [{"title": "ACS May-19-2026: Tim Hawkins", "subreddit": "AdamCarolla", "permalink": "https://reddit.com/r/AdamCarolla/comments/1th90tf/acs_may192026_tim_hawkins/", "score": 5, "date": "2026-05-19"}, {"title": "Spencer Pratt held a rally at a house in Sherman Oaks today.", "subreddit": "LosAngeles", "permalink": "https://reddit.com/r/LosAngeles/comments/1tf9ljx/spencer_pratt_held_a_rally_at_a_house_in_sherman/", "score": 0, "date": "2026-05-17"}], "kind": "marker"}}, {"type": "Feature", "geometry": {"type": "Polygon", "coordinates": [[[-92.95598876996092, 45.049582], [-92.9615630798244, 45.089567417287384], [-92.9780717918129, 45.128016217412494], [-93.00488048538286, 45.163450834548854], [-93.04095891747491, 45.194509536231884], [-93.08492061417675, 45.21999875397382], [-93.13507615213815, 45.23893895143136], [-93.18949808216279, 45.25060226743799], [-93.246095, 45.25454048730045], [-93.30269191783721, 45.25060226743799], [-93.35711384786184, 45.23893895143136], [-93.40726938582324, 45.21999875397382], [-93.45123108252508, 45.194509536231884], [-93.48730951461714, 45.163450834548854], [-93.5141182081871, 45.128016217412494], [-93.53062692017559, 45.089567417287384], [-93.53620123003907, 45.049582], [-93.53062692017559, 45.00959658271262], [-93.5141182081871, 44.97114778258751], [-93.48730951461714, 44.93571316545115], [-93.45123108252508, 44.90465446376812], [-93.40726938582324, 44.87916524602618], [-93.35711384786184, 44.860225048568644], [-93.30269191783721, 44.84856173256201], [-93.246095, 44.84462351269955], [-93.18949808216279, 44.84856173256201], [-93.13507615213815, 44.860225048568644], [-93.08492061417675, 44.87916524602618], [-93.04095891747491, 44.90465446376812], [-93.00488048538286, 44.93571316545115], [-92.9780717918129, 44.97114778258751], [-92.9615630798244, 45.00959658271262], [-92.95598876996092, 45.049582]]]}, "properties": {"tier": "4", "tier_color": "#f5a623", "n_arrests": 2, "county": "Minneapolis", "state": "Minnesota", "label": "4: 2 Reddit posts", "examples": [{"title": "May 19, 1942: World War 2 News Coverage - Minneapolis Morning Tribune", "subreddit": "ThisDayInHistory", "permalink": "https://reddit.com/r/ThisDayInHistory/comments/1thnnb7/may_19_1942_world_war_2_news_coverage_minneapolis/", "score": 9, "date": "2026-05-19"}, {"title": "ICE Agent Charged in Shooting of a Venezuelan Immigrant in Minnesota", "subreddit": "WhatTrumpHasDone", "permalink": "https://reddit.com/r/WhatTrumpHasDone/comments/1tgvz6b/ice_agent_charged_in_shooting_of_a_venezuelan/", "score": 2, "date": "2026-05-18"}], "kind": "ring"}}, {"type": "Feature", "geometry": {"type": "Point", "coordinates": [-93.246095, 45.049582]}, "properties": {"tier": "4", "tier_color": "#f5a623", "n_arrests": 2, "county": "Minneapolis", "state": "Minnesota", "label": "4: 2 Reddit posts", "examples": [{"title": "May 19, 1942: World War 2 News Coverage - Minneapolis Morning Tribune", "subreddit": "ThisDayInHistory", "permalink": "https://reddit.com/r/ThisDayInHistory/comments/1thnnb7/may_19_1942_world_war_2_news_coverage_minneapolis/", "score": 9, "date": "2026-05-19"}, {"title": "ICE Agent Charged in Shooting of a Venezuelan Immigrant in Minnesota", "subreddit": "WhatTrumpHasDone", "permalink": "https://reddit.com/r/WhatTrumpHasDone/comments/1tgvz6b/ice_agent_charged_in_shooting_of_a_venezuelan/", "score": 2, "date": "2026-05-18"}], "kind": "marker"}}, {"type": "Feature", "geometry": {"type": "Polygon", "coordinates": [[[-70.79106905245551, 42.357603], [-70.79639850371912, 42.39758841728738], [-70.81218204968665, 42.43603721741249], [-70.83781313753809, 42.47147183454885], [-70.87230677894141, 42.50253053623188], [-70.9143374026017, 42.528019753973815], [-70.96228979522277, 42.546959951431354], [-71.0143211732482, 42.55862326743799], [-71.068432, 42.56256148730045], [-71.1225428267518, 42.55862326743799], [-71.17457420477723, 42.546959951431354], [-71.2225265973983, 42.528019753973815], [-71.2645572210586, 42.50253053623188], [-71.29905086246191, 42.47147183454885], [-71.32468195031335, 42.43603721741249], [-71.34046549628088, 42.39758841728738], [-71.34579494754449, 42.357603], [-71.34046549628088, 42.317617582712614], [-71.32468195031335, 42.279168782587504], [-71.29905086246191, 42.243734165451144], [-71.2645572210586, 42.212675463768115], [-71.2225265973983, 42.18718624602618], [-71.17457420477723, 42.16824604856864], [-71.1225428267518, 42.15658273256201], [-71.068432, 42.152644512699545], [-71.0143211732482, 42.15658273256201], [-70.96228979522277, 42.16824604856864], [-70.9143374026017, 42.18718624602618], [-70.87230677894141, 42.212675463768115], [-70.83781313753809, 42.243734165451144], [-70.81218204968665, 42.279168782587504], [-70.79639850371912, 42.317617582712614], [-70.79106905245551, 42.357603]]]}, "properties": {"tier": "4", "tier_color": "#f5a623", "n_arrests": 2, "county": "Boston", "state": "Massachusetts", "label": "4: 2 Reddit posts", "examples": [{"title": "Boston show predictions", "subreddit": "BruceSpringsteen", "permalink": "https://reddit.com/r/BruceSpringsteen/comments/1th9okz/boston_show_predictions/", "score": 4, "date": "2026-05-19"}, {"title": "[Visual Deep-Dive] Patrick Henry statues, the 1st Institute war and how Memory dies in the Commonwealth.", "subreddit": "fo4", "permalink": "https://reddit.com/r/fo4/comments/1tfpozf/visual_deepdive_patrick_henry_statues_the_1st/", "score": 377, "date": "2026-05-17"}], "kind": "ring"}}, {"type": "Feature", "geometry": {"type": "Point", "coordinates": [-71.068432, 42.357603]}, "properties": {"tier": "4", "tier_color": "#f5a623", "n_arrests": 2, "county": "Boston", "state": "Massachusetts", "label": "4: 2 Reddit posts", "examples": [{"title": "Boston show predictions", "subreddit": "BruceSpringsteen", "permalink": "https://reddit.com/r/BruceSpringsteen/comments/1th9okz/boston_show_predictions/", "score": 4, "date": "2026-05-19"}, {"title": "[Visual Deep-Dive] Patrick Henry statues, the 1st Institute war and how Memory dies in the Commonwealth.", "subreddit": "fo4", "permalink": "https://reddit.com/r/fo4/comments/1tfpozf/visual_deepdive_patrick_henry_statues_the_1st/", "score": 377, "date": "2026-05-17"}], "kind": "marker"}}, {"type": "Feature", "geometry": {"type": "Polygon", "coordinates": [[[-111.82285172870543, 33.451], [-111.8275717913578, 33.49098541728738], [-111.84155058995417, 33.52943421741249], [-111.86425092710392, 33.564868834548854], [-111.89480044158086, 33.59592753623188], [-111.93202513267602, 33.62141675397382], [-111.97449447638644, 33.64035695143136], [-112.02057639965044, 33.65202026743799], [-112.0685, 33.65595848730045], [-112.11642360034956, 33.65202026743799], [-112.16250552361356, 33.64035695143136], [-112.20497486732398, 33.62141675397382], [-112.24219955841914, 33.59592753623188], [-112.27274907289608, 33.564868834548854], [-112.29544941004583, 33.52943421741249], [-112.3094282086422, 33.49098541728738], [-112.31414827129457, 33.451], [-112.3094282086422, 33.41101458271262], [-112.29544941004583, 33.37256578258751], [-112.27274907289608, 33.33713116545115], [-112.24219955841914, 33.30607246376812], [-112.20497486732398, 33.28058324602618], [-112.16250552361356, 33.261643048568644], [-112.11642360034956, 33.24997973256201], [-112.0685, 33.24604151269955], [-112.02057639965044, 33.24997973256201], [-111.97449447638644, 33.261643048568644], [-111.93202513267602, 33.28058324602618], [-111.89480044158086, 33.30607246376812], [-111.86425092710392, 33.33713116545115], [-111.84155058995417, 33.37256578258751], [-111.8275717913578, 33.41101458271262], [-111.82285172870543, 33.451]]]}, "properties": {"tier": "4", "tier_color": "#f5a623", "n_arrests": 2, "county": "Phoenix", "state": "Arizona", "label": "4: 2 Reddit posts", "examples": [{"title": "Rally at ACC People's Forum \u2014 Oppose APS Rate Hike | May 18, 6:00 PM | Phoenix", "subreddit": "AZAdvocacyHub", "permalink": "https://reddit.com/r/AZAdvocacyHub/comments/1tdyqyh/rally_at_acc_peoples_forum_oppose_aps_rate_hike/", "score": 10, "date": "2026-05-15"}, {"title": "Rally and Public Comment: Oppose APS 14% Rate Hike and Unregulated Formula Rates | May 18, 9:00 AM | Phoenix", "subreddit": "AZAdvocacyHub", "permalink": "https://reddit.com/r/AZAdvocacyHub/comments/1td0b0s/rally_and_public_comment_oppose_aps_14_rate_hike/", "score": 3, "date": "2026-05-14"}], "kind": "ring"}}, {"type": "Feature", "geometry": {"type": "Point", "coordinates": [-112.0685, 33.451]}, "properties": {"tier": "4", "tier_color": "#f5a623", "n_arrests": 2, "county": "Phoenix", "state": "Arizona", "label": "4: 2 Reddit posts", "examples": [{"title": "Rally at ACC People's Forum \u2014 Oppose APS Rate Hike | May 18, 6:00 PM | Phoenix", "subreddit": "AZAdvocacyHub", "permalink": "https://reddit.com/r/AZAdvocacyHub/comments/1tdyqyh/rally_at_acc_peoples_forum_oppose_aps_rate_hike/", "score": 10, "date": "2026-05-15"}, {"title": "Rally and Public Comment: Oppose APS 14% Rate Hike and Unregulated Formula Rates | May 18, 9:00 AM | Phoenix", "subreddit": "AZAdvocacyHub", "permalink": "https://reddit.com/r/AZAdvocacyHub/comments/1td0b0s/rally_and_public_comment_oppose_aps_14_rate_hike/", "score": 3, "date": "2026-05-14"}], "kind": "marker"}}, {"type": "Feature", "geometry": {"type": "Polygon", "coordinates": [[[-78.3798224984798, 35.772701], [-78.38467645372202, 35.81268641728738], [-78.39905178467087, 35.85113521741249], [-78.42239605541977, 35.88656983454885], [-78.45381215873545, 35.91762853623188], [-78.49209279138583, 35.943117753973816], [-78.5357668501262, 35.962057951431355], [-78.58315596537184, 35.97372126743799], [-78.632439, 35.97765948730045], [-78.68172203462817, 35.97372126743799], [-78.72911114987382, 35.962057951431355], [-78.77278520861418, 35.943117753973816], [-78.81106584126456, 35.91762853623188], [-78.84248194458024, 35.88656983454885], [-78.86582621532914, 35.85113521741249], [-78.88020154627799, 35.81268641728738], [-78.88505550152021, 35.772701], [-78.88020154627799, 35.732715582712615], [-78.86582621532914, 35.694266782587505], [-78.84248194458024, 35.658832165451145], [-78.81106584126456, 35.627773463768115], [-78.77278520861418, 35.60228424602618], [-78.72911114987382, 35.58334404856864], [-78.68172203462817, 35.57168073256201], [-78.632439, 35.567742512699546], [-78.58315596537184, 35.57168073256201], [-78.5357668501262, 35.58334404856864], [-78.49209279138583, 35.60228424602618], [-78.45381215873545, 35.627773463768115], [-78.42239605541977, 35.658832165451145], [-78.39905178467087, 35.694266782587505], [-78.38467645372202, 35.732715582712615], [-78.3798224984798, 35.772701]]]}, "properties": {"tier": "4", "tier_color": "#f5a623", "n_arrests": 2, "county": "Raleigh", "state": "North Carolina", "label": "4: 2 Reddit posts", "examples": [{"title": "Rally with Wake library workers this Monday at 6pm!", "subreddit": "raleigh", "permalink": "https://reddit.com/r/raleigh/comments/1t8dq6m/rally_with_wake_library_workers_this_monday_at_6pm/", "score": 114, "date": "2026-05-09"}, {"title": "Rally with Wake library workers on Monday at 6pm!", "subreddit": "triangle", "permalink": "https://reddit.com/r/triangle/comments/1t8djjc/rally_with_wake_library_workers_on_monday_at_6pm/", "score": 131, "date": "2026-05-09"}], "kind": "ring"}}, {"type": "Feature", "geometry": {"type": "Point", "coordinates": [-78.632439, 35.772701]}, "properties": {"tier": "4", "tier_color": "#f5a623", "n_arrests": 2, "county": "Raleigh", "state": "North Carolina", "label": "4: 2 Reddit posts", "examples": [{"title": "Rally with Wake library workers this Monday at 6pm!", "subreddit": "raleigh", "permalink": "https://reddit.com/r/raleigh/comments/1t8dq6m/rally_with_wake_library_workers_this_monday_at_6pm/", "score": 114, "date": "2026-05-09"}, {"title": "Rally with Wake library workers on Monday at 6pm!", "subreddit": "triangle", "permalink": "https://reddit.com/r/triangle/comments/1t8djjc/rally_with_wake_library_workers_on_monday_at_6pm/", "score": 131, "date": "2026-05-09"}], "kind": "marker"}}, {"type": "Feature", "geometry": {"type": "Polygon", "coordinates": [[[-94.30553894970137, 39.163189], [-94.3106182272902, 39.203174417287386], [-94.3256608662675, 39.241623217412496], [-94.35008878645333, 39.277057834548856], [-94.3829632365743, 39.308116536231886], [-94.42302086994847, 39.33360575397382], [-94.46872229418986, 39.35254595143136], [-94.51831122919452, 39.36420926743799], [-94.569882, 39.368147487300455], [-94.62145277080549, 39.36420926743799], [-94.67104170581015, 39.35254595143136], [-94.71674313005154, 39.33360575397382], [-94.75680076342572, 39.308116536231886], [-94.78967521354669, 39.277057834548856], [-94.81410313373252, 39.241623217412496], [-94.82914577270981, 39.203174417287386], [-94.83422505029864, 39.163189], [-94.82914577270981, 39.12320358271262], [-94.81410313373252, 39.08475478258751], [-94.78967521354669, 39.04932016545115], [-94.75680076342572, 39.01826146376812], [-94.71674313005154, 38.992772246026185], [-94.67104170581015, 38.973832048568646], [-94.62145277080549, 38.96216873256201], [-94.569882, 38.95823051269955], [-94.51831122919452, 38.96216873256201], [-94.46872229418986, 38.973832048568646], [-94.42302086994847, 38.992772246026185], [-94.3829632365743, 39.01826146376812], [-94.35008878645333, 39.04932016545115], [-94.3256608662675, 39.08475478258751], [-94.3106182272902, 39.12320358271262], [-94.30553894970137, 39.163189]]]}, "properties": {"tier": "4", "tier_color": "#f5a623", "n_arrests": 2, "county": "Kansas City", "state": "Missouri", "label": "4: 2 Reddit posts", "examples": [{"title": "Chief Engineer - MLS - KC Current - United states", "subreddit": "sports_jobs", "permalink": "https://reddit.com/r/sports_jobs/comments/1thmt42/chief_engineer_mls_kc_current_united_states/", "score": 2, "date": "2026-05-19"}, {"title": "The last two years the Patriot Front has used the WWI memorial as their staging ground for a fascist march on our community - Will they be here on Saturday?", "subreddit": "kansascity", "permalink": "https://reddit.com/r/kansascity/comments/1tga7o5/the_last_two_years_the_patriot_front_has_used_the/", "score": 100, "date": "2026-05-18"}], "kind": "ring"}}, {"type": "Feature", "geometry": {"type": "Point", "coordinates": [-94.569882, 39.163189]}, "properties": {"tier": "4", "tier_color": "#f5a623", "n_arrests": 2, "county": "Kansas City", "state": "Missouri", "label": "4: 2 Reddit posts", "examples": [{"title": "Chief Engineer - MLS - KC Current - United states", "subreddit": "sports_jobs", "permalink": "https://reddit.com/r/sports_jobs/comments/1thmt42/chief_engineer_mls_kc_current_united_states/", "score": 2, "date": "2026-05-19"}, {"title": "The last two years the Patriot Front has used the WWI memorial as their staging ground for a fascist march on our community - Will they be here on Saturday?", "subreddit": "kansascity", "permalink": "https://reddit.com/r/kansascity/comments/1tga7o5/the_last_two_years_the_patriot_front_has_used_the/", "score": 100, "date": "2026-05-18"}], "kind": "marker"}}, {"type": "Feature", "geometry": {"type": "Polygon", "coordinates": [[[-97.70557819118028, 30.210692], [-97.7101353617683, 30.250677417287385], [-97.72363174402231, 30.289126217412495], [-97.74554867954119, 30.32456083454886], [-97.77504391278408, 30.355619536231885], [-97.81098395847859, 30.381108753973823], [-97.85198766082407, 30.400048951431362], [-97.89647927053454, 30.411712267437995], [-97.942749, 30.41565048730045], [-97.98901872946547, 30.411712267437995], [-98.03351033917595, 30.400048951431362], [-98.07451404152143, 30.381108753973823], [-98.11045408721593, 30.355619536231885], [-98.13994932045883, 30.32456083454886], [-98.1618662559777, 30.289126217412495], [-98.17536263823172, 30.250677417287385], [-98.17991980881973, 30.210692], [-98.17536263823172, 30.17070658271262], [-98.1618662559777, 30.13225778258751], [-98.13994932045883, 30.096823165451145], [-98.11045408721593, 30.06576446376812], [-98.07451404152143, 30.04027524602618], [-98.03351033917595, 30.02133504856864], [-97.98901872946547, 30.00967173256201], [-97.942749, 30.005733512699553], [-97.89647927053454, 30.00967173256201], [-97.85198766082407, 30.02133504856864], [-97.81098395847859, 30.04027524602618], [-97.77504391278408, 30.06576446376812], [-97.74554867954119, 30.096823165451145], [-97.72363174402231, 30.13225778258751], [-97.7101353617683, 30.17070658271262], [-97.70557819118028, 30.210692]]]}, "properties": {"tier": "4", "tier_color": "#f5a623", "n_arrests": 2, "county": "Austin", "state": "Texas", "label": "4: 2 Reddit posts", "examples": [{"title": "The Austin Homeowner's Guide to Modern Kitchen Design", "subreddit": "ModernLuxuryKitchen", "permalink": "https://reddit.com/r/ModernLuxuryKitchen/comments/1tfm7et/the_austin_homeowners_guide_to_modern_kitchen/", "score": 1, "date": "2026-05-17"}, {"title": "Remote Job - 1Password - Senior Developer, Authentication Experience", "subreddit": "jobhuntify", "permalink": "https://reddit.com/r/jobhuntify/comments/1tdcnpr/remote_job_1password_senior_developer/", "score": 1, "date": "2026-05-14"}], "kind": "ring"}}, {"type": "Feature", "geometry": {"type": "Point", "coordinates": [-97.942749, 30.210692]}, "properties": {"tier": "4", "tier_color": "#f5a623", "n_arrests": 2, "county": "Austin", "state": "Texas", "label": "4: 2 Reddit posts", "examples": [{"title": "The Austin Homeowner's Guide to Modern Kitchen Design", "subreddit": "ModernLuxuryKitchen", "permalink": "https://reddit.com/r/ModernLuxuryKitchen/comments/1tfm7et/the_austin_homeowners_guide_to_modern_kitchen/", "score": 1, "date": "2026-05-17"}, {"title": "Remote Job - 1Password - Senior Developer, Authentication Experience", "subreddit": "jobhuntify", "permalink": "https://reddit.com/r/jobhuntify/comments/1tdcnpr/remote_job_1password_senior_developer/", "score": 1, "date": "2026-05-14"}], "kind": "marker"}}, {"type": "Feature", "geometry": {"type": "Polygon", "coordinates": [[[-117.78991113706371, 34.001119], [-117.79466155112654, 34.041104417287386], [-117.80873023756665, 34.079553217412496], [-117.83157654465397, 34.114987834548856], [-117.86232250161949, 34.146046536231886], [-117.89978655857955, 34.17153575397382], [-117.94252899283525, 34.19047595143136], [-117.9889072366084, 34.20213926743799], [-118.037139, 34.206077487300455], [-118.0853707633916, 34.20213926743799], [-118.13174900716474, 34.19047595143136], [-118.17449144142044, 34.17153575397382], [-118.2119554983805, 34.146046536231886], [-118.24270145534602, 34.114987834548856], [-118.26554776243334, 34.079553217412496], [-118.27961644887345, 34.041104417287386], [-118.28436686293628, 34.001119], [-118.27961644887345, 33.96113358271262], [-118.26554776243334, 33.92268478258751], [-118.24270145534602, 33.88725016545115], [-118.2119554983805, 33.85619146376812], [-118.17449144142044, 33.830702246026185], [-118.13174900716474, 33.811762048568646], [-118.0853707633916, 33.80009873256201], [-118.037139, 33.79616051269955], [-117.9889072366084, 33.80009873256201], [-117.94252899283525, 33.811762048568646], [-117.89978655857955, 33.830702246026185], [-117.86232250161949, 33.85619146376812], [-117.83157654465397, 33.88725016545115], [-117.80873023756665, 33.92268478258751], [-117.79466155112654, 33.96113358271262], [-117.78991113706371, 34.001119]]]}, "properties": {"tier": "4", "tier_color": "#f5a623", "n_arrests": 2, "county": "Whittier", "state": "California", "label": "4: 2 Reddit posts", "examples": [{"title": "Very Late Extra! Extra! 4/19 (Sorry for the mixup!)", "subreddit": "PoliticalOptimism", "permalink": "https://reddit.com/r/PoliticalOptimism/comments/1sszwxx/very_late_extra_extra_419_sorry_for_the_mixup/", "score": 46, "date": "2026-04-22"}, {"title": "Very Late Extra! Extra! 4/19 (Sorry for the mixup!)", "subreddit": "optimistsunitenonazis", "permalink": "https://reddit.com/r/optimistsunitenonazis/comments/1sszw5n/very_late_extra_extra_419_sorry_for_the_mixup/", "score": 17, "date": "2026-04-22"}], "kind": "ring"}}, {"type": "Feature", "geometry": {"type": "Point", "coordinates": [-118.037139, 34.001119]}, "properties": {"tier": "4", "tier_color": "#f5a623", "n_arrests": 2, "county": "Whittier", "state": "California", "label": "4: 2 Reddit posts", "examples": [{"title": "Very Late Extra! Extra! 4/19 (Sorry for the mixup!)", "subreddit": "PoliticalOptimism", "permalink": "https://reddit.com/r/PoliticalOptimism/comments/1sszwxx/very_late_extra_extra_419_sorry_for_the_mixup/", "score": 46, "date": "2026-04-22"}, {"title": "Very Late Extra! Extra! 4/19 (Sorry for the mixup!)", "subreddit": "optimistsunitenonazis", "permalink": "https://reddit.com/r/optimistsunitenonazis/comments/1sszw5n/very_late_extra_extra_419_sorry_for_the_mixup/", "score": 17, "date": "2026-04-22"}], "kind": "marker"}}, {"type": "Feature", "geometry": {"type": "Polygon", "coordinates": [[[-81.48221834894305, 41.4918], [-81.48593604461523, 41.52007395971248], [-81.496946262672, 41.54726136700943], [-81.51482588660802, 41.572317425075305], [-81.53888781250247, 41.59427924365022], [-81.56820735403727, 41.61230284236269], [-81.60165777767386, 41.625695584421926], [-81.6379536023911, 41.63394279426134], [-81.6757, 41.63672753623188], [-81.71344639760892, 41.63394279426134], [-81.74974222232615, 41.625695584421926], [-81.78319264596274, 41.61230284236269], [-81.81251218749755, 41.59427924365022], [-81.83657411339199, 41.572317425075305], [-81.85445373732801, 41.54726136700943], [-81.86546395538478, 41.520073959712484], [-81.86918165105696, 41.4918], [-81.86546395538478, 41.46352604028751], [-81.85445373732801, 41.43633863299056], [-81.83657411339199, 41.41128257492469], [-81.81251218749755, 41.389320756349775], [-81.78319264596274, 41.37129715763731], [-81.74974222232615, 41.35790441557807], [-81.71344639760892, 41.34965720573866], [-81.6757, 41.346872463768115], [-81.6379536023911, 41.34965720573866], [-81.60165777767386, 41.35790441557807], [-81.56820735403727, 41.37129715763731], [-81.53888781250247, 41.389320756349775], [-81.51482588660802, 41.41128257492469], [-81.496946262672, 41.43633863299056], [-81.48593604461523, 41.46352604028751], [-81.48221834894305, 41.4918]]]}, "properties": {"tier": "5", "tier_color": "#9e9e9e", "n_arrests": 1, "county": "Cleveland", "state": "Ohio", "label": "5: 1 Reddit post", "examples": [{"title": "Friend sent me this at work today.", "subreddit": "Cleveland", "permalink": "https://reddit.com/r/Cleveland/comments/1tho881/friend_sent_me_this_at_work_today/", "score": 29, "date": "2026-05-19"}], "kind": "ring"}}, {"type": "Feature", "geometry": {"type": "Point", "coordinates": [-81.6757, 41.4918]}, "properties": {"tier": "5", "tier_color": "#9e9e9e", "n_arrests": 1, "county": "Cleveland", "state": "Ohio", "label": "5: 1 Reddit post", "examples": [{"title": "Friend sent me this at work today.", "subreddit": "Cleveland", "permalink": "https://reddit.com/r/Cleveland/comments/1tho881/friend_sent_me_this_at_work_today/", "score": 29, "date": "2026-05-19"}], "kind": "marker"}}, {"type": "Feature", "geometry": {"type": "Polygon", "coordinates": [[[-76.87288630122474, 38.820042], [-76.8764605215026, 38.84831595971248], [-76.88704582705529, 38.875503367009436], [-76.90423543052677, 38.90055942507531], [-76.92736874509565, 38.92252124365022], [-76.95555677045637, 38.94054484236269], [-76.98771625660233, 38.95393758442193], [-77.0226113325162, 38.96218479426134], [-77.058901, 38.964969536231884], [-77.0951906674838, 38.96218479426134], [-77.13008574339769, 38.95393758442193], [-77.16224522954364, 38.94054484236269], [-77.19043325490436, 38.92252124365022], [-77.21356656947324, 38.90055942507531], [-77.23075617294472, 38.875503367009436], [-77.24134147849742, 38.84831595971249], [-77.24491569877527, 38.820042], [-77.24134147849742, 38.791768040287515], [-77.23075617294472, 38.764580632990565], [-77.21356656947324, 38.739524574924694], [-77.19043325490436, 38.71756275634978], [-77.16224522954364, 38.69953915763731], [-77.13008574339769, 38.68614641557807], [-77.0951906674838, 38.67789920573866], [-77.058901, 38.67511446376812], [-77.0226113325162, 38.67789920573866], [-76.98771625660233, 38.68614641557807], [-76.95555677045637, 38.69953915763731], [-76.92736874509565, 38.71756275634978], [-76.90423543052677, 38.739524574924694], [-76.88704582705529, 38.764580632990565], [-76.8764605215026, 38.791768040287515], [-76.87288630122474, 38.820042]]]}, "properties": {"tier": "5", "tier_color": "#9e9e9e", "n_arrests": 1, "county": "Alexandria", "state": "Virginia", "label": "5: 1 Reddit post", "examples": [{"title": "\u2018They may draw racist maps, but we are the south\u2019: thousands rally in Alabama for Black voting rights", "subreddit": "Defeat_Project_2025", "permalink": "https://reddit.com/r/Defeat_Project_2025/comments/1tfqe9v/they_may_draw_racist_maps_but_we_are_the_south/", "score": 363, "date": "2026-05-17"}], "kind": "ring"}}, {"type": "Feature", "geometry": {"type": "Point", "coordinates": [-77.058901, 38.820042]}, "properties": {"tier": "5", "tier_color": "#9e9e9e", "n_arrests": 1, "county": "Alexandria", "state": "Virginia", "label": "5: 1 Reddit post", "examples": [{"title": "\u2018They may draw racist maps, but we are the south\u2019: thousands rally in Alabama for Black voting rights", "subreddit": "Defeat_Project_2025", "permalink": "https://reddit.com/r/Defeat_Project_2025/comments/1tfqe9v/they_may_draw_racist_maps_but_we_are_the_south/", "score": 363, "date": "2026-05-17"}], "kind": "marker"}}, {"type": "Feature", "geometry": {"type": "Polygon", "coordinates": [[[-77.287235303847, 37.453158], [-77.2907431948624, 37.48143195971248], [-77.30113206162416, 37.50861936700944], [-77.31800266580875, 37.53367542507531], [-77.34070667955851, 37.555637243650224], [-77.36837160035759, 37.57366084236269], [-77.39993428081434, 37.58705358442193], [-77.43418178481937, 37.59530079426134], [-77.469798, 37.598085536231885], [-77.50541421518062, 37.59530079426134], [-77.53966171918566, 37.58705358442193], [-77.5712243996424, 37.57366084236269], [-77.59888932044149, 37.555637243650224], [-77.62159333419125, 37.53367542507531], [-77.63846393837584, 37.50861936700944], [-77.6488528051376, 37.48143195971249], [-77.652360696153, 37.453158], [-77.6488528051376, 37.424884040287516], [-77.63846393837584, 37.39769663299057], [-77.62159333419125, 37.372640574924695], [-77.59888932044149, 37.35067875634978], [-77.5712243996424, 37.33265515763731], [-77.53966171918566, 37.31926241557807], [-77.50541421518062, 37.31101520573866], [-77.469798, 37.30823046376812], [-77.43418178481937, 37.31101520573866], [-77.39993428081434, 37.31926241557807], [-77.36837160035759, 37.33265515763731], [-77.34070667955851, 37.35067875634978], [-77.31800266580875, 37.372640574924695], [-77.30113206162416, 37.39769663299057], [-77.2907431948624, 37.424884040287516], [-77.287235303847, 37.453158]]]}, "properties": {"tier": "5", "tier_color": "#9e9e9e", "n_arrests": 1, "county": "Richmond", "state": "Virginia", "label": "5: 1 Reddit post", "examples": [{"title": "Rally on Broad Street and Virginia Capitol for Reproductive Freedom Amendment", "subreddit": "RVAmag", "permalink": "https://reddit.com/r/RVAmag/comments/1tgsiap/rally_on_broad_street_and_virginia_capitol_for/", "score": 46, "date": "2026-05-18"}], "kind": "ring"}}, {"type": "Feature", "geometry": {"type": "Point", "coordinates": [-77.469798, 37.453158]}, "properties": {"tier": "5", "tier_color": "#9e9e9e", "n_arrests": 1, "county": "Richmond", "state": "Virginia", "label": "5: 1 Reddit post", "examples": [{"title": "Rally on Broad Street and Virginia Capitol for Reproductive Freedom Amendment", "subreddit": "RVAmag", "permalink": "https://reddit.com/r/RVAmag/comments/1tgsiap/rally_on_broad_street_and_virginia_capitol_for/", "score": 46, "date": "2026-05-18"}], "kind": "marker"}}, {"type": "Feature", "geometry": {"type": "Polygon", "coordinates": [[[-121.30790447389812, 38.5816], [-121.31146679694666, 38.60987395971248], [-121.32201686801531, 38.63706136700944], [-121.33914925378944, 38.66211742507531], [-121.36220556629172, 38.684079243650224], [-121.3902997643628, 38.70210284236269], [-121.4223522037262, 38.71549558442193], [-121.45713112711243, 38.72374279426134], [-121.4933, 38.726527536231885], [-121.52946887288758, 38.72374279426134], [-121.5642477962738, 38.71549558442193], [-121.59630023563722, 38.70210284236269], [-121.62439443370829, 38.684079243650224], [-121.64745074621057, 38.66211742507531], [-121.6645831319847, 38.63706136700944], [-121.67513320305335, 38.60987395971249], [-121.67869552610189, 38.5816], [-121.67513320305335, 38.553326040287516], [-121.6645831319847, 38.526138632990566], [-121.64745074621057, 38.501082574924695], [-121.62439443370829, 38.47912075634978], [-121.59630023563722, 38.46109715763731], [-121.5642477962738, 38.44770441557807], [-121.52946887288758, 38.43945720573866], [-121.4933, 38.43667246376812], [-121.45713112711243, 38.43945720573866], [-121.4223522037262, 38.44770441557807], [-121.3902997643628, 38.46109715763731], [-121.36220556629172, 38.47912075634978], [-121.33914925378944, 38.501082574924695], [-121.32201686801531, 38.526138632990566], [-121.31146679694666, 38.553326040287516], [-121.30790447389812, 38.5816]]]}, "properties": {"tier": "5", "tier_color": "#9e9e9e", "n_arrests": 1, "county": "Sacramento", "state": "California", "label": "5: 1 Reddit post", "examples": [{"title": "Crime survivors to rally at California Capitol for better victim support", "subreddit": "Sacramento", "permalink": "https://reddit.com/r/Sacramento/comments/1td523o/crime_survivors_to_rally_at_california_capitol/", "score": 16, "date": "2026-05-14"}], "kind": "ring"}}, {"type": "Feature", "geometry": {"type": "Point", "coordinates": [-121.4933, 38.5816]}, "properties": {"tier": "5", "tier_color": "#9e9e9e", "n_arrests": 1, "county": "Sacramento", "state": "California", "label": "5: 1 Reddit post", "examples": [{"title": "Crime survivors to rally at California Capitol for better victim support", "subreddit": "Sacramento", "permalink": "https://reddit.com/r/Sacramento/comments/1td523o/crime_survivors_to_rally_at_california_capitol/", "score": 16, "date": "2026-05-14"}], "kind": "marker"}}, {"type": "Feature", "geometry": {"type": "Polygon", "coordinates": [[[-121.70439267980443, 37.3894], [-121.70789758531438, 37.41767395971248], [-121.71827761029108, 37.44486136700944], [-121.73513385619584, 37.46991742507531], [-121.75781854695164, 37.491879243650224], [-121.78545992261446, 37.50990284236269], [-121.81699574061903, 37.52329558442193], [-121.85121409716494, 37.53154279426134], [-121.8868, 37.534327536231885], [-121.92238590283505, 37.53154279426134], [-121.95660425938095, 37.52329558442193], [-121.98814007738552, 37.50990284236269], [-122.01578145304835, 37.491879243650224], [-122.03846614380414, 37.46991742507531], [-122.0553223897089, 37.44486136700944], [-122.0657024146856, 37.41767395971249], [-122.06920732019556, 37.3894], [-122.0657024146856, 37.361126040287516], [-122.0553223897089, 37.33393863299057], [-122.03846614380414, 37.308882574924695], [-122.01578145304835, 37.28692075634978], [-121.98814007738552, 37.26889715763731], [-121.95660425938095, 37.25550441557807], [-121.92238590283505, 37.24725720573866], [-121.8868, 37.24447246376812], [-121.85121409716494, 37.24725720573866], [-121.81699574061903, 37.25550441557807], [-121.78545992261446, 37.26889715763731], [-121.75781854695164, 37.28692075634978], [-121.73513385619584, 37.308882574924695], [-121.71827761029108, 37.33393863299057], [-121.70789758531438, 37.361126040287516], [-121.70439267980443, 37.3894]]]}, "properties": {"tier": "5", "tier_color": "#9e9e9e", "n_arrests": 1, "county": "San Jose", "state": "California", "label": "5: 1 Reddit post", "examples": [{"title": "Only time I got to see a US President live", "subreddit": "Presidents", "permalink": "https://reddit.com/r/Presidents/comments/1tcfvrj/only_time_i_got_to_see_a_us_president_live/", "score": 39, "date": "2026-05-13"}], "kind": "ring"}}, {"type": "Feature", "geometry": {"type": "Point", "coordinates": [-121.8868, 37.3894]}, "properties": {"tier": "5", "tier_color": "#9e9e9e", "n_arrests": 1, "county": "San Jose", "state": "California", "label": "5: 1 Reddit post", "examples": [{"title": "Only time I got to see a US President live", "subreddit": "Presidents", "permalink": "https://reddit.com/r/Presidents/comments/1tcfvrj/only_time_i_got_to_see_a_us_president_live/", "score": 39, "date": "2026-05-13"}], "kind": "marker"}}, {"type": "Feature", "geometry": {"type": "Polygon", "coordinates": [[[-73.98314814364295, 40.7308], [-73.9868229944352, 40.75907395971248], [-73.99770632435693, 40.78626136700944], [-74.01537989314265, 40.81131742507531], [-74.03916451545541, 40.833279243650225], [-74.06814616159828, 40.85130284236269], [-74.1012110831631, 40.86469558442193], [-74.13708861375713, 40.87294279426134], [-74.1744, 40.875727536231885], [-74.21171138624288, 40.87294279426134], [-74.24758891683692, 40.86469558442193], [-74.28065383840173, 40.85130284236269], [-74.3096354845446, 40.833279243650225], [-74.33342010685736, 40.81131742507531], [-74.35109367564309, 40.78626136700944], [-74.36197700556481, 40.75907395971249], [-74.36565185635706, 40.7308], [-74.36197700556481, 40.702526040287516], [-74.35109367564309, 40.67533863299057], [-74.33342010685736, 40.650282574924695], [-74.3096354845446, 40.62832075634978], [-74.28065383840173, 40.61029715763731], [-74.24758891683692, 40.596904415578074], [-74.21171138624288, 40.58865720573866], [-74.1744, 40.58587246376812], [-74.13708861375713, 40.58865720573866], [-74.1012110831631, 40.596904415578074], [-74.06814616159828, 40.61029715763731], [-74.03916451545541, 40.62832075634978], [-74.01537989314265, 40.650282574924695], [-73.99770632435693, 40.67533863299057], [-73.9868229944352, 40.702526040287516], [-73.98314814364295, 40.7308]]]}, "properties": {"tier": "5", "tier_color": "#9e9e9e", "n_arrests": 1, "county": "Newark", "state": "New Jersey", "label": "5: 1 Reddit post", "examples": [{"title": "Great news at rally at federal courthouse in Newark today: The conversion of the Roxbury warehouse into a detention center is postponed for an environmental rev", "subreddit": "newjersey", "permalink": "https://reddit.com/r/newjersey/comments/1tbbzrw/great_news_at_rally_at_federal_courthouse_in/", "score": 88, "date": "2026-05-12"}], "kind": "ring"}}, {"type": "Feature", "geometry": {"type": "Point", "coordinates": [-74.1744, 40.7308]}, "properties": {"tier": "5", "tier_color": "#9e9e9e", "n_arrests": 1, "county": "Newark", "state": "New Jersey", "label": "5: 1 Reddit post", "examples": [{"title": "Great news at rally at federal courthouse in Newark today: The conversion of the Roxbury warehouse into a detention center is postponed for an environmental rev", "subreddit": "newjersey", "permalink": "https://reddit.com/r/newjersey/comments/1tbbzrw/great_news_at_rally_at_federal_courthouse_in/", "score": 88, "date": "2026-05-12"}], "kind": "marker"}}, {"type": "Feature", "geometry": {"type": "Polygon", "coordinates": [[[-117.68336180898754, 33.75016], [-117.68671099592767, 33.77843395971248], [-117.69662984937219, 33.80562136700944], [-117.71273719334577, 33.83067742507531], [-117.73441403165263, 33.85263924365022], [-117.76082733555315, 33.87066284236269], [-117.79096205659117, 33.88405558442193], [-117.82366013433693, 33.89230279426134], [-117.857665, 33.895087536231884], [-117.89166986566306, 33.89230279426134], [-117.92436794340882, 33.88405558442193], [-117.95450266444685, 33.87066284236269], [-117.98091596834736, 33.85263924365022], [-118.00259280665422, 33.83067742507531], [-118.01870015062781, 33.80562136700944], [-118.02861900407233, 33.77843395971249], [-118.03196819101245, 33.75016], [-118.02861900407233, 33.721886040287515], [-118.01870015062781, 33.694698632990566], [-118.00259280665422, 33.669642574924694], [-117.98091596834736, 33.64768075634978], [-117.95450266444685, 33.62965715763731], [-117.92436794340882, 33.61626441557807], [-117.89166986566306, 33.60801720573866], [-117.857665, 33.60523246376812], [-117.82366013433693, 33.60801720573866], [-117.79096205659117, 33.61626441557807], [-117.76082733555315, 33.62965715763731], [-117.73441403165263, 33.64768075634978], [-117.71273719334577, 33.669642574924694], [-117.69662984937219, 33.694698632990566], [-117.68671099592767, 33.721886040287515], [-117.68336180898754, 33.75016]]]}, "properties": {"tier": "5", "tier_color": "#9e9e9e", "n_arrests": 1, "county": "Santa Ana", "state": "California", "label": "5: 1 Reddit post", "examples": [{"title": "Orange County CA Protests &amp; Events This Week (May 11-May 18, 2026)", "subreddit": "orangecounty", "permalink": "https://reddit.com/r/orangecounty/comments/1tbbbfd/orange_county_ca_protests_events_this_week_may/", "score": 26, "date": "2026-05-12"}], "kind": "ring"}}, {"type": "Feature", "geometry": {"type": "Point", "coordinates": [-117.857665, 33.75016]}, "properties": {"tier": "5", "tier_color": "#9e9e9e", "n_arrests": 1, "county": "Santa Ana", "state": "California", "label": "5: 1 Reddit post", "examples": [{"title": "Orange County CA Protests &amp; Events This Week (May 11-May 18, 2026)", "subreddit": "orangecounty", "permalink": "https://reddit.com/r/orangecounty/comments/1tbbbfd/orange_county_ca_protests_events_this_week_may/", "score": 26, "date": "2026-05-12"}], "kind": "marker"}}, {"type": "Feature", "geometry": {"type": "Polygon", "coordinates": [[[-104.81923553221361, 39.840562], [-104.82286230031117, 39.86883595971248], [-104.83360322993975, 39.896023367009434], [-104.85104555319734, 39.921079425075305], [-104.8745189713829, 39.94304124365022], [-104.90312141419959, 39.96106484236269], [-104.93575370581043, 39.97445758442193], [-104.97116180554919, 39.98270479426134], [-105.007985, 39.98548953623188], [-105.04480819445082, 39.98270479426134], [-105.08021629418958, 39.97445758442193], [-105.11284858580042, 39.96106484236269], [-105.14145102861711, 39.94304124365022], [-105.16492444680267, 39.921079425075305], [-105.18236677006026, 39.896023367009434], [-105.19310769968884, 39.868835959712484], [-105.1967344677864, 39.840562], [-105.19310769968884, 39.81228804028751], [-105.18236677006026, 39.78510063299056], [-105.16492444680267, 39.76004457492469], [-105.14145102861711, 39.738082756349776], [-105.11284858580042, 39.72005915763731], [-105.08021629418958, 39.70666641557807], [-105.04480819445082, 39.69841920573866], [-105.007985, 39.695634463768116], [-104.97116180554919, 39.69841920573866], [-104.93575370581043, 39.70666641557807], [-104.90312141419959, 39.72005915763731], [-104.8745189713829, 39.738082756349776], [-104.85104555319734, 39.76004457492469], [-104.83360322993975, 39.78510063299056], [-104.82286230031117, 39.81228804028751], [-104.81923553221361, 39.840562]]]}, "properties": {"tier": "5", "tier_color": "#9e9e9e", "n_arrests": 1, "county": "Denver", "state": "Colorado", "label": "5: 1 Reddit post", "examples": [{"title": "Dungeon Crawler Carl x Animal Crossing New Horizons, anyone?", "subreddit": "DungeonCrawlerCarl", "permalink": "https://reddit.com/r/DungeonCrawlerCarl/comments/1t8944y/dungeon_crawler_carl_x_animal_crossing_new/", "score": 44, "date": "2026-05-09"}], "kind": "ring"}}, {"type": "Feature", "geometry": {"type": "Point", "coordinates": [-105.007985, 39.840562]}, "properties": {"tier": "5", "tier_color": "#9e9e9e", "n_arrests": 1, "county": "Denver", "state": "Colorado", "label": "5: 1 Reddit post", "examples": [{"title": "Dungeon Crawler Carl x Animal Crossing New Horizons, anyone?", "subreddit": "DungeonCrawlerCarl", "permalink": "https://reddit.com/r/DungeonCrawlerCarl/comments/1t8944y/dungeon_crawler_carl_x_animal_crossing_new/", "score": 44, "date": "2026-05-09"}], "kind": "marker"}}, {"type": "Feature", "geometry": {"type": "Polygon", "coordinates": [[[-74.29585063881066, 40.795236], [-74.29952905402625, 40.82350995971248], [-74.31042294023919, 40.85069736700944], [-74.32811365151167, 40.87575342507531], [-74.35192134373055, 40.897715243650225], [-74.38093110063538, 40.91573884236269], [-74.41402809353715, 40.92913158442193], [-74.44994042355965, 40.93737879426134], [-74.487288, 40.940163536231886], [-74.52463557644036, 40.93737879426134], [-74.56054790646286, 40.92913158442193], [-74.59364489936463, 40.91573884236269], [-74.62265465626946, 40.897715243650225], [-74.64646234848834, 40.87575342507531], [-74.66415305976082, 40.85069736700944], [-74.67504694597376, 40.82350995971249], [-74.67872536118935, 40.795236], [-74.67504694597376, 40.76696204028752], [-74.66415305976082, 40.73977463299057], [-74.64646234848834, 40.714718574924696], [-74.62265465626946, 40.69275675634978], [-74.59364489936463, 40.67473315763731], [-74.56054790646286, 40.661340415578074], [-74.52463557644036, 40.653093205738664], [-74.487288, 40.65030846376812], [-74.44994042355965, 40.653093205738664], [-74.41402809353715, 40.661340415578074], [-74.38093110063538, 40.67473315763731], [-74.35192134373055, 40.69275675634978], [-74.32811365151167, 40.714718574924696], [-74.31042294023919, 40.73977463299057], [-74.29952905402625, 40.76696204028752], [-74.29585063881066, 40.795236]]]}, "properties": {"tier": "5", "tier_color": "#9e9e9e", "n_arrests": 1, "county": "Morristown", "state": "New Jersey", "label": "5: 1 Reddit post", "examples": [{"title": "Rally at Newark Courthouse \u2022 May 12th 9:30am", "subreddit": "morriscountyICEnews", "permalink": "https://reddit.com/r/morriscountyICEnews/comments/1t66zt3/rally_at_newark_courthouse_may_12th_930am/", "score": 17, "date": "2026-05-07"}], "kind": "ring"}}, {"type": "Feature", "geometry": {"type": "Point", "coordinates": [-74.487288, 40.795236]}, "properties": {"tier": "5", "tier_color": "#9e9e9e", "n_arrests": 1, "county": "Morristown", "state": "New Jersey", "label": "5: 1 Reddit post", "examples": [{"title": "Rally at Newark Courthouse \u2022 May 12th 9:30am", "subreddit": "morriscountyICEnews", "permalink": "https://reddit.com/r/morriscountyICEnews/comments/1t66zt3/rally_at_newark_courthouse_may_12th_930am/", "score": 17, "date": "2026-05-07"}], "kind": "marker"}}, {"type": "Feature", "geometry": {"type": "Polygon", "coordinates": [[[-80.66588279143981, 35.2269], [-80.66929181335394, 35.25517395971248], [-80.67938787229595, 35.282361367009436], [-80.69578298238265, 35.30741742507531], [-80.71784708872791, 35.32937924365022], [-80.74473228009853, 35.34740284236269], [-80.77540537366755, 35.36079558442193], [-80.80868761965078, 35.36904279426134], [-80.8433, 35.37182753623188], [-80.87791238034922, 35.36904279426134], [-80.91119462633245, 35.36079558442193], [-80.94186771990147, 35.34740284236269], [-80.96875291127209, 35.32937924365022], [-80.99081701761735, 35.30741742507531], [-81.00721212770405, 35.282361367009436], [-81.01730818664606, 35.25517395971249], [-81.02071720856019, 35.2269], [-81.01730818664606, 35.198626040287515], [-81.00721212770405, 35.171438632990565], [-80.99081701761735, 35.146382574924694], [-80.96875291127209, 35.12442075634978], [-80.94186771990147, 35.10639715763731], [-80.91119462633245, 35.09300441557807], [-80.87791238034922, 35.08475720573866], [-80.8433, 35.08197246376812], [-80.80868761965078, 35.08475720573866], [-80.77540537366755, 35.09300441557807], [-80.74473228009853, 35.10639715763731], [-80.71784708872791, 35.12442075634978], [-80.69578298238265, 35.146382574924694], [-80.67938787229595, 35.171438632990565], [-80.66929181335394, 35.198626040287515], [-80.66588279143981, 35.2269]]]}, "properties": {"tier": "5", "tier_color": "#9e9e9e", "n_arrests": 1, "county": "Charlotte", "state": "North Carolina", "label": "5: 1 Reddit post", "examples": [{"title": "Staff wanted for Simracing Expo in Charlotte this weekend", "subreddit": "Pimax", "permalink": "https://reddit.com/r/Pimax/comments/1tghdv6/staff_wanted_for_simracing_expo_in_charlotte_this/", "score": 6, "date": "2026-05-18"}], "kind": "ring"}}, {"type": "Feature", "geometry": {"type": "Point", "coordinates": [-80.8433, 35.2269]}, "properties": {"tier": "5", "tier_color": "#9e9e9e", "n_arrests": 1, "county": "Charlotte", "state": "North Carolina", "label": "5: 1 Reddit post", "examples": [{"title": "Staff wanted for Simracing Expo in Charlotte this weekend", "subreddit": "Pimax", "permalink": "https://reddit.com/r/Pimax/comments/1tghdv6/staff_wanted_for_simracing_expo_in_charlotte_this/", "score": 6, "date": "2026-05-18"}], "kind": "marker"}}, {"type": "Feature", "geometry": {"type": "Polygon", "coordinates": [[[-87.15931745703129, 32.646301], [-87.16262468578655, 32.67457495971248], [-87.172419277106, 32.70176236700944], [-87.18832483033812, 32.72681842507531], [-87.20973010399209, 32.748780243650224], [-87.23581250540565, 32.76680384236269], [-87.26556970251961, 32.78019658442193], [-87.29785814293696, 32.78844379426134], [-87.331437, 32.791228536231884], [-87.36501585706303, 32.78844379426134], [-87.39730429748037, 32.78019658442193], [-87.42706149459434, 32.76680384236269], [-87.4531438960079, 32.748780243650224], [-87.47454916966187, 32.72681842507531], [-87.49045472289399, 32.70176236700944], [-87.50024931421343, 32.67457495971249], [-87.5035565429687, 32.646301], [-87.50024931421343, 32.618027040287515], [-87.49045472289399, 32.590839632990566], [-87.47454916966187, 32.565783574924694], [-87.4531438960079, 32.54382175634978], [-87.42706149459434, 32.52579815763731], [-87.39730429748037, 32.51240541557807], [-87.36501585706303, 32.50415820573866], [-87.331437, 32.50137346376812], [-87.29785814293696, 32.50415820573866], [-87.26556970251961, 32.51240541557807], [-87.23581250540565, 32.52579815763731], [-87.20973010399209, 32.54382175634978], [-87.18832483033812, 32.565783574924694], [-87.172419277106, 32.590839632990566], [-87.16262468578655, 32.618027040287515], [-87.15931745703129, 32.646301]]]}, "properties": {"tier": "5", "tier_color": "#9e9e9e", "n_arrests": 1, "county": "Marion", "state": "Alabama", "label": "5: 1 Reddit post", "examples": [{"title": "May 16, 2026", "subreddit": "HeatherCoxRichardson", "permalink": "https://reddit.com/r/HeatherCoxRichardson/comments/1tfzfff/may_16_2026/", "score": 27, "date": "2026-05-17"}], "kind": "ring"}}, {"type": "Feature", "geometry": {"type": "Point", "coordinates": [-87.331437, 32.646301]}, "properties": {"tier": "5", "tier_color": "#9e9e9e", "n_arrests": 1, "county": "Marion", "state": "Alabama", "label": "5: 1 Reddit post", "examples": [{"title": "May 16, 2026", "subreddit": "HeatherCoxRichardson", "permalink": "https://reddit.com/r/HeatherCoxRichardson/comments/1tfzfff/may_16_2026/", "score": 27, "date": "2026-05-17"}], "kind": "marker"}}, {"type": "Feature", "geometry": {"type": "Polygon", "coordinates": [[[-92.89182372154909, 44.902691], [-92.89575526989087, 44.930964959712476], [-92.90739882771824, 44.95815236700943], [-92.92630693963369, 44.983208425075304], [-92.95175297750012, 45.00517024365022], [-92.98275906435259, 45.02319384236269], [-93.01813365366179, 45.036586584421926], [-93.05651731979889, 45.044833794261336], [-93.096435, 45.04761853623188], [-93.13635268020111, 45.044833794261336], [-93.17473634633821, 45.036586584421926], [-93.2101109356474, 45.02319384236269], [-93.24111702249988, 45.00517024365022], [-93.26656306036631, 44.983208425075304], [-93.28547117228176, 44.95815236700943], [-93.29711473010913, 44.93096495971248], [-93.30104627845091, 44.902691], [-93.29711473010913, 44.87441704028751], [-93.28547117228176, 44.84722963299056], [-93.26656306036631, 44.82217357492469], [-93.24111702249988, 44.800211756349775], [-93.2101109356474, 44.78218815763731], [-93.17473634633821, 44.76879541557807], [-93.13635268020111, 44.76054820573866], [-93.096435, 44.757763463768114], [-93.05651731979889, 44.76054820573866], [-93.01813365366179, 44.76879541557807], [-92.98275906435259, 44.78218815763731], [-92.95175297750012, 44.800211756349775], [-92.92630693963369, 44.82217357492469], [-92.90739882771824, 44.84722963299056], [-92.89575526989087, 44.87441704028751], [-92.89182372154909, 44.902691]]]}, "properties": {"tier": "5", "tier_color": "#9e9e9e", "n_arrests": 1, "county": "Saint Paul", "state": "Minnesota", "label": "5: 1 Reddit post", "examples": [{"title": "Staff Wanted for Flight Sim Expo &amp; AWE USA 2026", "subreddit": "Pimax", "permalink": "https://reddit.com/r/Pimax/comments/1tdpmni/staff_wanted_for_flight_sim_expo_awe_usa_2026/", "score": 5, "date": "2026-05-15"}], "kind": "ring"}}, {"type": "Feature", "geometry": {"type": "Point", "coordinates": [-93.096435, 44.902691]}, "properties": {"tier": "5", "tier_color": "#9e9e9e", "n_arrests": 1, "county": "Saint Paul", "state": "Minnesota", "label": "5: 1 Reddit post", "examples": [{"title": "Staff Wanted for Flight Sim Expo &amp; AWE USA 2026", "subreddit": "Pimax", "permalink": "https://reddit.com/r/Pimax/comments/1tdpmni/staff_wanted_for_flight_sim_expo_awe_usa_2026/", "score": 5, "date": "2026-05-15"}], "kind": "marker"}}, {"type": "Feature", "geometry": {"type": "Polygon", "coordinates": [[[-89.75730322066342, 35.0337], [-89.76070416414791, 35.06197395971248], [-89.77077629825052, 35.08916136700944], [-89.78713255650622, 35.11421742507531], [-89.80914437708293, 35.136179243650226], [-89.83596585806026, 35.15420284236269], [-89.86656626496591, 35.16759558442193], [-89.8997696413234, 35.17584279426134], [-89.9343, 35.178627536231886], [-89.96883035867658, 35.17584279426134], [-90.00203373503408, 35.16759558442193], [-90.03263414193972, 35.15420284236269], [-90.05945562291706, 35.136179243650226], [-90.08146744349376, 35.11421742507531], [-90.09782370174946, 35.08916136700944], [-90.10789583585208, 35.06197395971249], [-90.11129677933657, 35.0337], [-90.10789583585208, 35.00542604028752], [-90.09782370174946, 34.97823863299057], [-90.08146744349376, 34.953182574924696], [-90.05945562291706, 34.93122075634978], [-90.03263414193972, 34.91319715763731], [-90.00203373503408, 34.899804415578075], [-89.96883035867658, 34.891557205738664], [-89.9343, 34.88877246376812], [-89.8997696413234, 34.891557205738664], [-89.86656626496591, 34.899804415578075], [-89.83596585806026, 34.91319715763731], [-89.80914437708293, 34.93122075634978], [-89.78713255650622, 34.953182574924696], [-89.77077629825052, 34.97823863299057], [-89.76070416414791, 35.00542604028752], [-89.75730322066342, 35.0337]]]}, "properties": {"tier": "5", "tier_color": "#9e9e9e", "n_arrests": 1, "county": "Memphis", "state": "Tennessee", "label": "5: 1 Reddit post", "examples": [{"title": "Protests erupt during the vote to split up Memphis into 3 red congressional districts", "subreddit": "JohnsonCity", "permalink": "https://reddit.com/r/JohnsonCity/comments/1t6r63q/protests_erupt_during_the_vote_to_split_up/", "score": 1292, "date": "2026-05-07"}], "kind": "ring"}}, {"type": "Feature", "geometry": {"type": "Point", "coordinates": [-89.9343, 35.0337]}, "properties": {"tier": "5", "tier_color": "#9e9e9e", "n_arrests": 1, "county": "Memphis", "state": "Tennessee", "label": "5: 1 Reddit post", "examples": [{"title": "Protests erupt during the vote to split up Memphis into 3 red congressional districts", "subreddit": "JohnsonCity", "permalink": "https://reddit.com/r/JohnsonCity/comments/1t6r63q/protests_erupt_during_the_vote_to_split_up/", "score": 1292, "date": "2026-05-07"}], "kind": "marker"}}, {"type": "Feature", "geometry": {"type": "Polygon", "coordinates": [[[-74.63348070049936, 40.168142], [-74.63712491232874, 40.19641595971248], [-74.6479175028, 40.22360336700944], [-74.66544371871386, 40.24865942507531], [-74.68903003742157, 40.270621243650226], [-74.71777004992256, 40.28864484236269], [-74.750559293654, 40.30203758442193], [-74.78613769636772, 40.31028479426134], [-74.823138, 40.313069536231886], [-74.86013830363228, 40.31028479426134], [-74.895716706346, 40.30203758442193], [-74.92850595007744, 40.28864484236269], [-74.95724596257843, 40.270621243650226], [-74.98083228128614, 40.24865942507531], [-74.9983584972, 40.22360336700944], [-75.00915108767126, 40.19641595971249], [-75.01279529950064, 40.168142], [-75.00915108767126, 40.13986804028752], [-74.9983584972, 40.11268063299057], [-74.98083228128614, 40.087624574924696], [-74.95724596257843, 40.06566275634978], [-74.92850595007744, 40.04763915763731], [-74.895716706346, 40.034246415578075], [-74.86013830363228, 40.025999205738664], [-74.823138, 40.02321446376812], [-74.78613769636772, 40.025999205738664], [-74.750559293654, 40.034246415578075], [-74.71777004992256, 40.04763915763731], [-74.68903003742157, 40.06566275634978], [-74.66544371871386, 40.087624574924696], [-74.6479175028, 40.11268063299057], [-74.63712491232874, 40.13986804028752], [-74.63348070049936, 40.168142]]]}, "properties": {"tier": "5", "tier_color": "#9e9e9e", "n_arrests": 1, "county": "Levittown", "state": "Pennsylvania", "label": "5: 1 Reddit post", "examples": [{"title": "When an African American family moved into Levittown, PA 1963", "subreddit": "HistoryGaze", "permalink": "https://reddit.com/r/HistoryGaze/comments/1t4v9wt/when_an_african_american_family_moved_into/", "score": 46, "date": "2026-05-05"}], "kind": "ring"}}, {"type": "Feature", "geometry": {"type": "Point", "coordinates": [-74.823138, 40.168142]}, "properties": {"tier": "5", "tier_color": "#9e9e9e", "n_arrests": 1, "county": "Levittown", "state": "Pennsylvania", "label": "5: 1 Reddit post", "examples": [{"title": "When an African American family moved into Levittown, PA 1963", "subreddit": "HistoryGaze", "permalink": "https://reddit.com/r/HistoryGaze/comments/1t4v9wt/when_an_african_american_family_moved_into/", "score": 46, "date": "2026-05-05"}], "kind": "marker"}}, {"type": "Feature", "geometry": {"type": "Polygon", "coordinates": [[[-149.57513316585272, 61.211571], [-149.58091571724023, 61.23984495971248], [-149.59804115119587, 61.267032367009435], [-149.62585134689672, 61.292088425075306], [-149.66327757411818, 61.31405024365022], [-149.70888156393698, 61.33207384236269], [-149.7609107805994, 61.34546658442193], [-149.81736577048744, 61.35371379426134], [-149.876077, 61.35649853623188], [-149.93478822951258, 61.35371379426134], [-149.99124321940062, 61.34546658442193], [-150.04327243606303, 61.33207384236269], [-150.08887642588184, 61.31405024365022], [-150.1263026531033, 61.292088425075306], [-150.15411284880415, 61.267032367009435], [-150.1712382827598, 61.239844959712485], [-150.1770208341473, 61.211571], [-150.1712382827598, 61.18329704028751], [-150.15411284880415, 61.156109632990564], [-150.1263026531033, 61.13105357492469], [-150.08887642588184, 61.10909175634978], [-150.04327243606303, 61.09106815763731], [-149.99124321940062, 61.07767541557807], [-149.93478822951258, 61.06942820573866], [-149.876077, 61.066643463768116], [-149.81736577048744, 61.06942820573866], [-149.7609107805994, 61.07767541557807], [-149.70888156393698, 61.09106815763731], [-149.66327757411818, 61.10909175634978], [-149.62585134689672, 61.13105357492469], [-149.59804115119587, 61.156109632990564], [-149.58091571724023, 61.18329704028751], [-149.57513316585272, 61.211571]]]}, "properties": {"tier": "5", "tier_color": "#9e9e9e", "n_arrests": 1, "county": "Anchorage", "state": "Alaska", "label": "5: 1 Reddit post", "examples": [{"title": "EU fantasy to weaken Russia. Energy strikes continue | The Duran", "subreddit": "WayOfTheBern", "permalink": "https://reddit.com/r/WayOfTheBern/comments/1t2bzse/eu_fantasy_to_weaken_russia_energy_strikes/", "score": 8, "date": "2026-05-03"}], "kind": "ring"}}, {"type": "Feature", "geometry": {"type": "Point", "coordinates": [-149.876077, 61.211571]}, "properties": {"tier": "5", "tier_color": "#9e9e9e", "n_arrests": 1, "county": "Anchorage", "state": "Alaska", "label": "5: 1 Reddit post", "examples": [{"title": "EU fantasy to weaken Russia. Energy strikes continue | The Duran", "subreddit": "WayOfTheBern", "permalink": "https://reddit.com/r/WayOfTheBern/comments/1t2bzse/eu_fantasy_to_weaken_russia_energy_strikes/", "score": 8, "date": "2026-05-03"}], "kind": "marker"}}, {"type": "Feature", "geometry": {"type": "Polygon", "coordinates": [[[-86.59891972354878, 36.167028], [-86.60236917453744, 36.19530195971248], [-86.61258496703641, 36.22248936700944], [-86.62917451386905, 36.24754542507531], [-86.65150028805408, 36.269507243650224], [-86.67870432261002, 36.28753084236269], [-86.70974118174509, 36.30092358442193], [-86.74341813636839, 36.30917079426134], [-86.778441, 36.311955536231885], [-86.81346386363161, 36.30917079426134], [-86.84714081825491, 36.30092358442193], [-86.87817767738998, 36.28753084236269], [-86.90538171194592, 36.269507243650224], [-86.92770748613096, 36.24754542507531], [-86.94429703296359, 36.22248936700944], [-86.95451282546256, 36.19530195971249], [-86.95796227645123, 36.167028], [-86.95451282546256, 36.138754040287516], [-86.94429703296359, 36.11156663299057], [-86.92770748613096, 36.086510574924695], [-86.90538171194592, 36.06454875634978], [-86.87817767738998, 36.04652515763731], [-86.84714081825491, 36.03313241557807], [-86.81346386363161, 36.02488520573866], [-86.778441, 36.02210046376812], [-86.74341813636839, 36.02488520573866], [-86.70974118174509, 36.03313241557807], [-86.67870432261002, 36.04652515763731], [-86.65150028805408, 36.06454875634978], [-86.62917451386905, 36.086510574924695], [-86.61258496703641, 36.11156663299057], [-86.60236917453744, 36.138754040287516], [-86.59891972354878, 36.167028]]]}, "properties": {"tier": "5", "tier_color": "#9e9e9e", "n_arrests": 1, "county": "Nashville", "state": "Tennessee", "label": "5: 1 Reddit post", "examples": [{"title": "Reich-Wing Watch: \"\ud83d\udea8A man who showed up armed to a Nashville \u201cNo Kings\u201d anti-Trump rally \u2014 spitting on protesters and brandishing a gun \u2014 is now facing federal ", "subreddit": "Indigenous_Life", "permalink": "https://reddit.com/r/Indigenous_Life/comments/1t6fkuw/reichwing_watch_a_man_who_showed_up_armed_to_a/", "score": 1, "date": "2026-05-07"}], "kind": "ring"}}, {"type": "Feature", "geometry": {"type": "Point", "coordinates": [-86.778441, 36.167028]}, "properties": {"tier": "5", "tier_color": "#9e9e9e", "n_arrests": 1, "county": "Nashville", "state": "Tennessee", "label": "5: 1 Reddit post", "examples": [{"title": "Reich-Wing Watch: \"\ud83d\udea8A man who showed up armed to a Nashville \u201cNo Kings\u201d anti-Trump rally \u2014 spitting on protesters and brandishing a gun \u2014 is now facing federal ", "subreddit": "Indigenous_Life", "permalink": "https://reddit.com/r/Indigenous_Life/comments/1t6fkuw/reichwing_watch_a_man_who_showed_up_armed_to_a/", "score": 1, "date": "2026-05-07"}], "kind": "marker"}}, {"type": "Feature", "geometry": {"type": "Polygon", "coordinates": [[[-90.13863583831473, 38.642574], [-90.1422011902868, 38.67084795971248], [-90.15276023172622, 38.69803536700944], [-90.16990718459203, 38.72309142507531], [-90.19298310110173, 38.745053243650226], [-90.221101186725, 38.76307684236269], [-90.25318087920009, 38.77646958442193], [-90.28798937393572, 38.78471679426134], [-90.324189, 38.787501536231886], [-90.36038862606429, 38.78471679426134], [-90.39519712079992, 38.77646958442193], [-90.42727681327501, 38.76307684236269], [-90.45539489889828, 38.745053243650226], [-90.47847081540797, 38.72309142507531], [-90.49561776827379, 38.69803536700944], [-90.50617680971321, 38.67084795971249], [-90.50974216168528, 38.642574], [-90.50617680971321, 38.61430004028752], [-90.49561776827379, 38.58711263299057], [-90.47847081540797, 38.562056574924696], [-90.45539489889828, 38.54009475634978], [-90.42727681327501, 38.52207115763731], [-90.39519712079992, 38.508678415578075], [-90.36038862606429, 38.500431205738664], [-90.324189, 38.49764646376812], [-90.28798937393572, 38.500431205738664], [-90.25318087920009, 38.508678415578075], [-90.221101186725, 38.52207115763731], [-90.19298310110173, 38.54009475634978], [-90.16990718459203, 38.562056574924696], [-90.15276023172622, 38.58711263299057], [-90.1422011902868, 38.61430004028752], [-90.13863583831473, 38.642574]]]}, "properties": {"tier": "5", "tier_color": "#9e9e9e", "n_arrests": 1, "county": "Saint Louis", "state": "Missouri", "label": "5: 1 Reddit post", "examples": [{"title": "Trump Wants To Set Up $1.7B Fund To Pay Jan. 6 Rioters (McCloskey)", "subreddit": "StLouis", "permalink": "https://reddit.com/r/StLouis/comments/1teabwv/trump_wants_to_set_up_17b_fund_to_pay_jan_6/", "score": 292, "date": "2026-05-15"}], "kind": "ring"}}, {"type": "Feature", "geometry": {"type": "Point", "coordinates": [-90.324189, 38.642574]}, "properties": {"tier": "5", "tier_color": "#9e9e9e", "n_arrests": 1, "county": "Saint Louis", "state": "Missouri", "label": "5: 1 Reddit post", "examples": [{"title": "Trump Wants To Set Up $1.7B Fund To Pay Jan. 6 Rioters (McCloskey)", "subreddit": "StLouis", "permalink": "https://reddit.com/r/StLouis/comments/1teabwv/trump_wants_to_set_up_17b_fund_to_pay_jan_6/", "score": 292, "date": "2026-05-15"}], "kind": "marker"}}]}